state,facility_name,facility_type,street_address,city,county,zip
Alabama,Avalon Place (Cypress Cove),Skilled Nursing Facility,200 Alabama Avenue,Muscle Shoals,Colbert,35661
Alabama,Brookshire (fka Westside),Skilled Nursing Facility,4320 Judith Lane,Huntsville,Madison,35805
Alabama,Canterbury Health Center,Skilled Nursing Facility,1720 Knowles Road,Phoenix City,Russell,36867
Alabama,Cottage of the Shoals,Skilled Nursing Facility,500 John Aldridge Drive,Tuscumbia,Colbert,35674
Alabama,Keller Landing,Skilled Nursing Facility,813 Keller Lane,Tuscumbia,Colbert,35674
Alabama,Lynwood Nursing Home,Skilled Nursing Facility,4164 Halls Mill Road,Mobile,Mobile,36693
Alabama,Merrywood Lodge,Skilled Nursing Facility,"280 Mount Hebron Road, P.O. Box 130",Elmore,Elmore,36025
Alabama,Northside Health Care,Skilled Nursing Facility,700 Hutchins Avenue,Gadsden,Etowah,35901
Alabama,River City,Skilled Nursing Facility,1350 14th Avenue SE,Decatur,Morgan,35601
Arizona,Encanto Palms,Assisted Living Facility,3901 West Encanto Boulevard,Phoenix,Maricopa,85009
Arizona,Maryland Gardens,Skilled Nursing Facility,31 West Maryland Avenue,Phoenix,Maricopa,85013
Arizona,Palm Valley,Skilled Nursing Facility,13575 West McDowell Road,Goodyear,Maricopa,85338
Arizona,Ridgecrest,Skilled Nursing Facility,16640 North 38th Street,Phoenix,Maricopa,85032
Arizona,Sandridge (Mesa Christian),Skilled Nursing Facility,255 West Brown Road,Mesa,Maricopa,85201
Arizona,Santa Catalina,Independent Living Facility,7500 North Calle Sin Envidia,Tucson,Pima,85718
Arizona,Silverwood (L'Estancia),Skilled Nursing Facility,15810 South 42nd Street,Phoenix,Maricopa,85048
Arizona,Sun City,Skilled Nursing Facility,9940 West Union Hills Drive,Sun City,Maricopa,85373
Arizona,Verde Valley (Austin House),Assisted Living Facility,195 South Willard Street,Cottonwood,Yavapai,86326
Arkansas,Ash Flat Nursing & Rehab Center,Skilled Nursing Facility,66 Ozbirn Lane,Ash Flat,Sharp,72513
Arkansas,Conway Healthcare & Rehab Center (Faulkner),Skilled Nursing Facility,2603 Dave Ward Drive,Conway,Faulkner,72032
Arkansas,Des Arc Nursing & Rehab Center,Skilled Nursing Facility,"2216 West Main, P.O. Box 143B",Des Arc,Prairie,72040
Arkansas,Garland Nursing & Rehab Center and Apts.,Skilled Nursing Facility,610 Carpenter Dam Road,Hot Springs,Garland,71901
Arkansas,Sheridan Nursing & Rehab Center,Skilled Nursing Facility,113 South Briarwood Drive,Sheridan,Grant,72150
Arkansas,The Atrium at Serenity Pointe,Assisted Living Facility,2803 Albert Pike Road,Hot Springs,Garland,71913
California,Arbor Hills Nursing & Rehab,Skilled Nursing Facility,7800 Parkway Avenue,La Mesa,San Diego,91942
California,Artesia,Traumatic Brain Injury,17724 Gridley Road,Artesia,Los Angeles,90701
California,Artesia Palms,Skilled Nursing Facility,11900 East Artesia Boulevard,Artesia,Los Angeles,90701
California,Arvin,Skilled Nursing Facility,323 Campus Drive,Arvin,Kern,93203
California,Bakersfield,Skilled Nursing Facility,6212 Tudor Way,Bakersfield,Kern,93306
California,Camino (fka Hawthorne),Skilled Nursing Facility,13922 Cerise Avenue,Hawthorne,San Diego,90250
California,Castle Manor Nursing & Rehab,Skilled Nursing Facility,541 South V Avenue,National City,San Diego,91950
California,Chatsworth,Traumatic Brain Injury,10339 Oso Avenue,Chatsworth,Los Angeles,91311
California,Claremont,Skilled Nursing Facility,219 East Foothill Boulevard,Pomona,Los Angeles,91768
California,Community Care,Skilled Nursing Facility,4070 Jurupa Avenue,Riverside,Riverside,92506
California,Country Oaks,Skilled Nursing Facility,215 West Pearl Street,Pomona,Los Angeles,91768
California,Diablo Valley (Concord),Skilled Nursing Facility,3806 Clayton Road,Concord,Contra Costa,94521
California,Extended Care,Skilled Nursing Facility,8171 Magnolia Avenue,Riverside,Riverside,92504
California,Fremont,Skilled Nursing Facility,2400 Parkside Drive,Fremont,Alameda,94536
California,French Park,Skilled Nursing Facility,600 East Washington Avenue,Santa Ana,Orange,92701
California,Fresno-Marks,Traumatic Brain Injury,6385 North Marks,Fresno,Fresno,93711
California,Friendship Manor Nursing & Rehab,Skilled Nursing Facility,902 Euclid Avenue,National City,San Diego,91950
California,Gilroy,Traumatic Brain Injury,11500 Center Avenue,Gilroy,Santa Clara,95020
California,Golden Hills Subacute & Rehab Center,Skilled Nursing Facility,1201 34th Street,San Diego,San Diego,92102
California,Gordon Lane,Skilled Nursing Facility,1819 East Chapman Avenue,Fullerton,Orange,92831
California,Granite Bay,Traumatic Brain Injury,7150 Sierra Ponds Lane,Granite Bay,Placer,95746
California,Hayward Gardens,Skilled Nursing Facility,1628 B Street,Hayward,Alameda,94541
California,Heritage Court Assisted Living,Assisted Living Facility,275 Garnet Way B,Upland,San Bernardino,91786
California,Heritage Manor,Skilled Nursing Facility,610 North Garfield Avenue,Monterey Park,Los Angeles,91754
California,Heritage Park Nursing,Skilled Nursing Facility,275 Garnet Way,Upland,San Bernardino,91786
California,Kearny Mesa Nursing,Skilled Nursing Facility,7675 Family Circle,San Diego,San Diego,92111
California,Kentfield Rehab & Specialty Hospital,Long Term Acute Care Hospital,1125 Sir Francis Drake Boulevard,Kentfield,Marin,94904
California,La Habra,Traumatic Brain Injury,102 East Avocado Crest Road,La Habra,Orange,90631
California,Lakeport,Skilled Nursing Facility,1291 Craig Avenue,Lakeport,Lake,95453
California,Lindsay Gardens,Skilled Nursing Facility,1011 W. Tulare Road,Lindsay,Tulare,93247
California,Marin,Traumatic Brain Injury,2390 Sir Frances Drake Boulevard,Fairfax,Marin,94930
California,Mission,Skilled Nursing Facility,8487 Magnolia Street,Riverside,Riverside,92504
California,Murrieta,Assisted Living Facility,24350 Jackson Avenue,Murrieta,Riverside,92562
California,Newport Beach,Skilled Nursing Facility,1555 Superior Avenue,Newport Beach,Orange,92663
California,North Valley,Skilled Nursing Facility,7660 Wyngate Street,Tujunga,Los Angeles,91042
California,Oxnard,Traumatic Brain Injury,1540 Teal Club Road,Oxnard,Ventura,93030
California,Pleasanton,Traumatic Brain Injury,446 Sycamore Road,Pleasanton,Alameda,94566
California,Pomona Vista,Skilled Nursing Facility,651 North Main Street,Pomona,Los Angeles,91768
California,Ridgeway (Petaluma),Skilled Nursing Facility,523 Hayes Lane,Petaluma,Sonoma,94952
California,Sacramento,Traumatic Brain Injury,7601 Jacinto Road,Elk Grove,Sacramento,95758
California,Salinas,Skilled Nursing Facility,637 East Romie Lane,Salinas,Monterey,93901
California,San Diego,Skilled Nursing Facility,3022 45th Street,San Diego,San Diego,92105
California,Sierra View,Skilled Nursing Facility,14318 Ohio Street,Baldwin Park,Los Angeles,91706
California,St. Catherine (fka Fullerton),Skilled Nursing Facility,245 East Wilshire Avenue,Fullerton,Orange,92832
California,Sun Villa (Sequoia),Skilled Nursing Facility,350 N. Villa Street,Porterville,Tulare,93257
California,Sunset Villa (Long Beach),Skilled Nursing Facility,3232 East Artesia Boulevard,Long Beach,Los Angeles,90805
California,Texhoma (Northridge),Traumatic Brain Injury,9440 Texhoma Avenue,Northridge,Los Angeles,91325
California,Valley (Gateway),Skilled Nursing Facility,661 W Poplar,Porterville,Tulare,93257
California,Victoria (fka Rose),Skilled Nursing Facility,3541 Puente Avenue,Baldwin Park,Los Angeles,91706
California,Villa Rancho Bernardo,Skilled Nursing Facility,15720 Bernardo Center Drive,San Diego,San Diego,92127
California,Vista Knoll Specialized Care Facility,Skilled Nursing Facility,2000 Westwood Road,Vista,San Diego,92083
California,Blossom Grove,Assisted Living Facility,11116 New Jersey Street,Redlands,San Bernardino,92373
Colorado,Amberwood,Skilled Nursing Facility,4686 E. Asbury Circle,Denver,Denver,80222
Colorado,Atlas (Pueblo),Skilled Nursing Facility,2611 Jones Avenue,Pueblo,Pueblo,81004
Colorado,Boulder (Mesa Vista),Skilled Nursing Facility,2121 Mesa Drive,Boulder,Boulder,80304
Colorado,Brookshire,Skilled Nursing Facility,4660 E. Asbury Circle,Denver,Denver,80222
Colorado,Eagle Ridge,Skilled Nursing Facility,2425 Teller Ave,Grand Junction,Mesa,81501
Colorado,Highline,Skilled Nursing Facility,6060 East Iliff Avenue,Denver,Denver,80222
Colorado,Lakeside (Christopher House),Skilled Nursing Facility,6270 W. 38th Avenue,Wheat Ridge,Jefferson,80033
Colorado,Mountain View IL (Cheyenna Place),Independent Living Facility,945 Tenderfoot Hill Road,Colorado Springs,El Paso,80906
Colorado,Mountain View SNF(Cheyenne Mountain),Skilled Nursing Facility,835 Tenderfoot Hill Road,Colorado Springs,El Paso,80906
Colorado,Pikes Peak Care Center,Skilled Nursing Facility,2719 North Union Boulevard,Colorado Springs,El Paso,80909
Colorado,Red Cliffs (Mesa Manor),Skilled Nursing Facility,2901 North 12th Street,Grand Junction,Mesa,81506
Colorado,Riverdale,Skilled Nursing Facility,2311 E. Bridge Street,Brighton,Adams,80601
Colorado,Sierra,Skilled Nursing Facility,1432 Depew Street,Lakewood,Jefferson,80214
Colorado,Westwood (North Star),Skilled Nursing Facility,3185 W. Arkansas Avenue,Denver,Denver,80219
Connecticut,Benchmark at Stamford,Assisted Living Facility,251 Turn of River,Stamford,Fairfield,06905
Connecticut,Danbury,Assisted Living Facility,22 Hospital Avenue (30 Crane Street),Danbury,Fairfield,06810
Connecticut,Darien,Assisted Living Facility,599 Boston Post Road,Darien,Fairfield,06820
Connecticut,Newtown,Assisted Living Facility,166 Mount Pleasant Road,Newtown,Fairfield,06470
Connecticut,Norwalk (Strawberry Hill),Assisted Living Facility,73 Strawberry Hill Avenue,Norwalk,Fairfield,06855
Connecticut,Orange,Assisted Living Facility,245 Indian River Road,Orange,New Haven,06477
Connecticut,Southport,Assisted Living Facility,917 Mill Hill Terrace,Southport,Fairfield,06890
Connecticut,Stony Hill (Bethel),Assisted Living Facility,"46 Stony Hill Road, US Route 6",Bethel,Fairfield,06801
Connecticut,District of Columbia,Embassy,Assisted Living Facility,"2100 Massachusetts Avenue, NW",Washington,DC
England,Aldringham Court,Assisted Living Facility,Aldeburgh Road,Aldringham,Suffolk,IP16 4QF
England,Alexandra House,Assisted Living Facility,Havelock Terrace,Gateshead,Tyne & Wear,NE8 1QU
England,Alexandra View,Assisted Living Facility,Lilburn Place,Southwick,Sunderland,SR5 2AF
England,Ashfield Court,Assisted Living Facility,Great Lime Road,Forest Hall,Newcastle Upon Tyne,NE12 9DH
England,Ashlea Court,Assisted Living Facility,Church Lane,Waltham Grimsby,Waltham Grimsby,DN37 0ES
England,Ashley Court,Assisted Living Facility,6-10 St Peter's Road,Poole,Dorset,BH14 0PA
England,Ashley Gardens,Assisted Living Facility,Sutton Road,Maidstone,Kent,ME15 8RA
England,Autumn Vale Care Centre,Assisted Living Facility,Danesbury Park Road,Welwyn,Hertfordshire,AL6 9SW
England,Avon Lodge,Assisted Living Facility,Southey Avenue,Kingswood,Bristol,BS15 1QT
England,Aycliffe,Assisted Living Facility,Burnhope,Newton Aycliffe,Durham,DL5 7ER
England,Ayresome Court,Assisted Living Facility,Green Lane,Yarm,Stockton on Tees,TS15 9EH
England,Barking Hall,Assisted Living Facility,Needham Market,Barking,Suffolk,IP6 8HJ
England,Baugh House,Assisted Living Facility,19 Baugh Road,Sidcup,Kent,DA14 5ED
England,Beaumont,Assisted Living Facility,56 Kenilworth Road,Coventry,Coventry,CV4 7AH
England,Beaumont Park,Assisted Living Facility,Shortmead Street,Biggleswade,Bedfordshire,SG18 0AT
England,Bedhampton,Assisted Living Facility,55 Hulbert Road,Bedhampton,Havant,PO9 3TB
England,Beech Grove,Assisted Living Facility,St. Paul's Street,Low Moor,Clitheroe,BB7 2LS
England,Bilney Hall,Assisted Living Facility,East Bilney,East Bilney,Norfolk,NR20 4AL
England,Blandford Grange,Assisted Living Facility,Milldown Road,Blandford Forum,Dorset,DT11 7DE
England,Bletchley House,Assisted Living Facility,Beaverbrook Court,"Bletchley, Milton Keynes",Buckinghamshire,MK3 7JS
England,Brackenridge House,Assisted Living Facility,Brackenhill Victoria Road,"Ruislip, Hillingdon",Middlesex,HA4 0JH
England,Brantwood Hall,Assisted Living Facility,10-14 (even) North Avenue,Wakefield,Wakefield,WF1 3RX
England,Bridge View,Assisted Living Facility,Ashington Drive,Choppington,Northumberland,NE62 5JF
England,Burrows House,Assisted Living Facility,12 Derwent Road,"Penge, London",London,SE20 8SW
England,Cameron House,Assisted Living Facility,2 Cameron Street,Elton Bury,Greater Manchester,BL8 2QH
England,Cedar Court,Assisted Living Facility,60 Moorland Road,Witney,Oxfordshire,OX28 6LG
England,Cedar Grange,Assisted Living Facility,Main Street,Cherry Burton,Beverly,HU17 7RF
England,Chapel Lodge,Assisted Living Facility,105 Station Road,Chapeltown,Sheffield,S35 2XF
England,Charlton Court,Assisted Living Facility,Bristol Drive,Wallsend,Tyne & Wear,NE28 9RH
England,Chichester Court,Assisted Living Facility,111 Chicester Road,South Shields,Tyne & Wear,NE33 4HE
England,Church House,Assisted Living Facility,Coole Lane,Austerson,"Nantwich, Cheshire East",CW5 8AB
England,Church View,Assisted Living Facility,Main Street,"South Church, Biship Aukland",Country Durham,DL14 6SL
England,Claremont House / Lodge,Assisted Living Facility,"20a Yarmouth Road, Caister-on-Sea",Great Yarmouth,Norfolk,NR30 5AA
England,Coble House,Assisted Living Facility,North View,Whitley Bay,North Tyneside,NE12 2EU
England,Comfort House,Assisted Living Facility,21 Middlegate,Tyne & Wear,Newcastle Upon Tyne,NE5 5AY
England,Crofton Court,Assisted Living Facility,Edward Street,Blyth,Northumberland,NE24 1DW
England,Croston,Assisted Living Facility,Town Road,Croston,Leyland,PR26 9RA
England,Dene Park House,Assisted Living Facility,Killingworth Road,South Gosforth,Newcastle Upon Tyne,NE3 1SY
England,Dolphin View,Assisted Living Facility,Harbour Road,Amble,Northumberland,NE65 0AP
England,Drayton Village Care Centre,Assisted Living Facility,1 Spring Promenade,"West Drayton, London",London,UB7 9GL
England,Evergreens,Assisted Living Facility,Stephenson Court Station Road,"Forest Hall, Newcastle Upon Tyne",North Tyneside,NE12 9BQ
England,Fornham House,Assisted Living Facility,Fornham St Martin,Bury St Edmunds,Suffolk,IP31 1SR
England,Foxearth Lodge,Assisted Living Facility,Little Green,"Saxtead, Woodbridge",Suffolk,IP13 9QY
England,Foxgrove Court,Assisted Living Facility,High Road East,Felixstowe,Suffolk,IP11 9PU
England,Frindsbury Hall,Assisted Living Facility,Frindsbury Hill,Rochester,Medway,ME2 4JS
England,Guisborough Manor,Assisted Living Facility,Woodhouse Triangle Middlesborough Road,Guisborough,Guisborough Manor,TS14 6QU
England,Halcyon Days Care Home,Assisted Living Facility,"The Old Rectory, Church Lane","Graveley, Hitchin",Hertfordshire,SG4 7LU
England,Hamilton House,Assisted Living Facility,West Street,Buckingham,Buckinghamshire,MK18 1HL
England,Handford House,Assisted Living Facility,27A Cumberland Street,Ipswich,Suffolk,IP1 3PA
England,Haughgate,Assisted Living Facility,Haugh Lane,Woodbridge,Suffolk,IP12 1JG
England,Haythorne Place,Assisted Living Facility,Shiregreen Lane,Shirefield,Sheffield,S5 6AB
England,Heath Lodge,Assisted Living Facility,Danesbury Park Road,Welwyn,Hertfordshire,AL6 9SN
England,Hillcroft House,Assisted Living Facility,Finborough Road,Stowmarket,Suffolk,IP14 1PW
England,Hillside Nursing Home,Assisted Living Facility,North Hill Drive,Romford,Essex,RM3 9AW
England,Hilltop Lodge,Assisted Living Facility,White Lane,Chapeltown,Sheffield,S35 2YH
England,Home Close,Assisted Living Facility,Cow Lane,Fulbourn,Cambridgeshire,CB21 5HB
England,Home Meadow,Assisted Living Facility,Comberton Road,Toft,Cambridgeshire,CB23 2RY
England,Hylton View,Assisted Living Facility,Old Mill Road,Southwick,Sunderland,SR5 5TP
England,Ivybank House,Assisted Living Facility,Ivy Bank Park,Bath,Somerset,BA2 5NF
England,Kent House,Assisted Living Facility,Augustine Road,Harrow,Middlesex,HA3 5NS
England,Kingsley Court,Assisted Living Facility,855 Uxbridge Road,Hayes,Middlesex,UB4 8HZ
England,Langford Park Nursing Home,Assisted Living Facility,Langford Road,Exeter,Exeter,EX5 5AG
England,Lindsay House,Assisted Living Facility,Parbold Hill,"Parbold, Wigan",Lancashire,WN8 7TG
England,Long Meadow,Assisted Living Facility,"Bakewell Road, Darley Dale",Matlock,Derbyshire,DE4 3BN
England,Lowgate,Assisted Living Facility,Grass Road,Lowgate,Hexham,NE46 2NN
England,Lucton House,Assisted Living Facility,8 Long Wood,Birmingham,West Midlands,B30 1HT
England,Magnolia House,Assisted Living Facility,42 - 52 Hull Road,Cottingham,East Yorkshire,HU16 4PX
England,Malthouse,Assisted Living Facility,Bay Road,Gillingham,Dorset,SP8 4EW
England,Manor House,Assisted Living Facility,1 Amblecote Avenue,Birmingham,West Midlands,B44 9AL
England,Martins House,Assisted Living Facility,Jessop Road,Stevenage,Hertfordshire,SG1 5LL
England,Maynell House,Assisted Living Facility,High Road East,Felixstowe,Suffolk,IP11 9PU
England,Meadow House,Assisted Living Facility,Norwich Road,Swaffham,Norfolk,PE37 8DD
England,Mill Lane,Assisted Living Facility,Mill Lane,Felixstowe,Suffolk,IP11 7RW
England,Moorend Place,Assisted Living Facility,34 Commonside,Walkley,Sheffield,S10 1GE
England,Moorfield House,Assisted Living Facility,6 Kenton Road,Gosforth,Newcastle Upon Tyne,NE3 4NB
England,Moorgate 3,Assisted Living Facility,Nightingale Close,Rotherham,South Yorkshire,S60 2AB
England,Oaklands House,Assisted Living Facility,"Lowestoft Road, Reydon",Southwold,Suffolk,IP18 6RD
England,Old Vicarage,Assisted Living Facility,Leigh,Sherborne,Dorset,DT9 6HL
England,Olive House,Assisted Living Facility,"Olive Avenue, Newton Flotman",Norwich,Norfolk,NR15 1PF
England,Overbury House,Assisted Living Facility,9 Staitheway Road,Wroxham,Norfolk,NR12 8TH
England,Park House,Assisted Living Facility,27 Park Crescent,Peterborough,Cambridgeshire,PE1 4DX
England,Park View,Assisted Living Facility,Feetham Avenue,Newcastle Upon Tyne,Newcastle Upon Tyne,NE12 9QN
England,Partridge House,Assisted Living Facility,"Heath Hill Ave, Bevendean",East Sussex,Sussex,BN2 4LT
England,Pavilion Court,Assisted Living Facility,Mckendrick Villas,Tyne & Wear,Newcastle Upon Tyne,NE5 3AB
England,Peregrine House,Assisted Living Facility,281 to 287 (Odd) St. Ann's Road,"Tottenham, London",London,N15 5RE
England,Philips Court,Assisted Living Facility,Bluebell Close,Beacon Lough,Gateshead,NE9 6RL
England,Piper Court,Assisted Living Facility,Sycamore Way,Stockton-On-Tees,Durham,TS19 8FR
England,Princes Court,Assisted Living Facility,Hedley Road,North Shields,Tyne & Wear,NE29 6XP
England,Queensway House,Assisted Living Facility,Jupiter Drive,Hemel Hempstead,Hertfordshire,HP2 5NP
England,Red Brick House,Assisted Living Facility,Victoria Terrace,Prudhoe,Northumberland,NE42 5AE
England,Rosemount,Assisted Living Facility,Earsdon Road,West Monkseaton,North Tyneside,NE25 9YF
England,Sandown Park,Assisted Living Facility,61 Vale Road,Windsor,Berkshire,SL4 5JY
England,Saxlingham Hall,Assisted Living Facility,The Green,Saxlingham Nethergate,Norwich,NR15 1TH
England,Seale Pastures House,Assisted Living Facility,Burton Road,"Acresford, Swadlincote",Derbyshire,DE12 8AP
England,Shipdham Manor,Assisted Living Facility,Chapel Street,Shipdham,Norfolk,IP25 7LB
England,South Bebside,Assisted Living Facility,Patterdale Road,Blyth,Northumberland,NE24 5JU
England,South Park,Assisted Living Facility,Gale Lane,Acomb,York,YO2 3HX
England,South Quay,Assisted Living Facility,Cowpen Road,Blyth,Northumberland,NE24 5TT
England,Sovereign Lodge,Assisted Living Facility,2 Carew Road,Eastbourne,East Sussex,BN21 2BF
England,Springfield House,Assisted Living Facility,Oaken Drive,Codsall,Wolverhampton,WV8 2EE
England,St Leonardâ€™s Court,Assisted Living Facility,"6 St. Leonard's Street, Mundford",Thetford,Norfolk,IP26 5HG
England,St Marks Court,Assisted Living Facility,73 Split,"Crow Road, Gateshead",Tyne & Wear,NE8 3SA
England,St Peters Court,Assisted Living Facility,98 Church Bank,"Wallsend, Notrh Tyneside",Tyne & Wear,NE28 7LH
England,St. Stephens Care Home,Assisted Living Facility,"St. Stephens Terrace, Droitwich Road",Worcester,Worcestershire,WR3 7HU
England,Stanshawes Nursing Home,Assisted Living Facility,11 Stanshawes Drive,Yate,Bristol,BS37 4ET
England,Swiss Cottage,Assisted Living Facility,Plantation Road,Leighton Buzzard,Bedfordshire,LU7 3HU
England,Tenchley Manor,Assisted Living Facility,Ursula Square,Selsey,Chichester,PO20 0HR
England,The Chase,Assisted Living Facility,4 Printers Avenue,Watford,Hertfordshire,WD18 7QR
England,The Gables,Assisted Living Facility,"6 Marine Parade, Gorleston",Great Yarmouth,Norfolk,NR31 6DU
England,The Hall,Assisted Living Facility,Chestnut Avenue,Thornton Le Dale,North Yorkshire,YO18 7RR
England,The Hillings,Assisted Living Facility,"Grenville Way , Eaton Socon",St Neots,Cambridgeshire,PE19 8HZ
England,The Lodge,Assisted Living Facility,Portway,Langport,Somerset,TA10 0NQ
England,The Manor House,Assisted Living Facility,Skeyton Road,North Walsham,Norfolk,NR28 0LU
England,The Tudors Care Home,Assisted Living Facility,North Street,Stanground Peterborough,Cambridgeshire,PE2 8HR
England,The White House,Assisted Living Facility,15 Ashmans Road,Beccles,Suffolk,NR34 9NS
England,Uvedale Hall,Assisted Living Facility,Coddenham Road,Needham Market,Suffolk,IP6 8AX
England,Victoria,Assisted Living Facility,Victoria Street,St. Helens,Merseyside,WA11 8DA
England,Walcot Hall,Assisted Living Facility,Walcot Road,"Walcott Green, Diss",Norfolk,IP22 5SR
England,Wallace House,Assisted Living Facility,Ravensworth Road,Dunston,Gateshead,NE11 9AE
England,Washington Manor,Assisted Living Facility,Hollin Hill Road,Washington,Washington,NE37 2DP
England,Wellburn House,Assisted Living Facility,Wellburn Road,Stockton-On-Tees,Durham,TS19 7PP
England,Westerleigh,Assisted Living Facility,Scott Street,Stanley,Durham,DH9 8AD
England,Wheatfield Court,Assisted Living Facility,Wheatfield Road,Newcastle Upon Tyne,Tyne & Wear,NE5 5HQ
England,Willow Court,Assisted Living Facility,Osborne Gardens,North Shields,Tyne & Wear,NE29 9AT
England,Willow Green,Assisted Living Facility,Eastbourne Road,Darlington,Darlington,DL1 4ER
England,Willow Lodge,Assisted Living Facility,Osborne Gardens,North Shields,Tyne & Wear,NE29 9AT
England,Willowbrook,Assisted Living Facility,363 Aldridge Road,Birmingham,Staffordshire,B44 8BW
England,Willowmead Care Home,Assisted Living Facility,Wickham Bishops Road,Hatfield Peverel Chelmsford,Hertfordshire,CM3 2JL
England,Windermere Grange,Assisted Living Facility,Windermere Road,Middlesborough,Middlesborough,TS5 5DH
England,Woodside Grange,Assisted Living Facility,Tedder Avenue,Thornaby,Stockton-on-Tees,TS17 9JP
England,Wordsworth House,Assisted Living Facility,Clayton Road,Jesmond,Newcastle Upon Tyne,NE2 1TL
England,Alexander,Assisted Living Facility,21 Rushey Mead Lewisham,London,Kent,SE4 1JJ
England,Amber Lodge,Assisted Living Facility,21 Thornhill Road,"Armley, Leeds",Stirlingshire,LS12 4LL
England,April Park,Assisted Living Facility,West Street,Eckington,Derbyshire,S21 4GA
England,Ash Court,Assisted Living Facility,Brookside Avenue,"Knotty Ash, Liverpool",Lancashire,L14 7NB
England,Aspen Court (Tower Hamlets),Assisted Living Facility,17-21 Dodd Street,Limehouse London,Cheshire,E14 7EP
England,"Beeches, The",Assisted Living Facility,Yew Tree Lane,Dukinfield,Cheshire,SK16 5BJ
England,Carrington Court (Grosvenor),Assisted Living Facility,190-191 Derby Lane,Hindley Wigan Greater Manchester,Lancashire,WN2 3DU
England,Fazakerley House,Assisted Living Facility,Park Road,"Prescot, Merseyside",Lancashire,L34 3LN
England,Fir Trees,Assisted Living Facility,"Gorse Hill Road, Dukinfield, SK16 5HN",Dukinfield,Cheshire,SK16 5HN
England,Holme Lea,Assisted Living Facility,Ashtley Road,Stalybridge,South Yorkshire,SK15 1RA
England,Holmwood,Assisted Living Facility,"Warminster Road, Norton Lees",Sheffield,South Yorkshire,S8 9BN
England,Kirkby House,Assisted Living Facility,James Holt Avenue,"Kirkby, Merseyside",Lancashire,L32 5TD
England,Milliner Court (Barton House),Assisted Living Facility,Marsh Road,Luton,Bedfordshire,LU3 2QE
England,Oaklands (Laindon),Assisted Living Facility,"Forest Glade, Dunton Hills",Laindon,Essex,SS16 6SA
England,"Orchards (Birmingham), The",Assisted Living Facility,"Shard End Crescent, Shard End",Birmingham,West Midlands,B34 7BP
England,Rievaulx House,Assisted Living Facility,21 Thornhill Road,"Armley, Leeds","Yorkshire, West Riding",LS12 4LL
England,Rosebridge Court,Assisted Living Facility,190-191 Derby Lane,Hindley Wigan Greater Manchester,Lancashire,WN2 3DU
England,Stamford Court,Assisted Living Facility,Astley Road,Stalybridge,Lancashire,SK15 1RA
England,Westwood Lodge,Assisted Living Facility,"Brookview, Heimsman Way, Off Poolstock Lane",Wigan,Lancashire,WN3 5DJ
England,Yew Trees,Assisted Living Facility,"Yew Tree Lane,",Dukinfield,Cheshire,SK16 5BJ
England,Abingdon Court,Assisted Living Facility,Marcham Road,Abingdon,Berkshire,OX14 1AD
England,Appletree Court,Assisted Living Facility,158 Burnt Oak Broadway,"Burnt Oak, Edgware",Middlesex,HA8 0AX
England,Chestnut Court,Assisted Living Facility,Frizlands Lane,Dagenham,Essex,RM10 7YD
England,Highfield,Assisted Living Facility,Mandeville Road,Saffron Walden,Essex,CB11 4AQ
England,Kents Hill,Assisted Living Facility,50 Tunbridge Grove,"Kents Hill, Milton Keynes",Buckinghamshire,MK7 6JD
England,Parkview House,Assisted Living Facility,206/212 Chingford Mount Road,"Chingford, London",Essex,E4 8JR
England,Alexandra Court,Assisted Living Facility,110 Victoria Road East,"Thornton, Cleveleys",Lancashire,FY5 3SZ
England,Allingham House,Assisted Living Facility,"Stocksdean Close, Deansgate Lane",Timperley Altrincham,West Riding,WA15 6S
England,"Belvedere, The",Assisted Living Facility,Horseshoe Lane,Alderley Edge,Cheshire,SK9 7QP
England,Birch Heath Lodge,Assisted Living Facility,Birch Heath Lane,"Christleton, Chester",Cheshire,CH3 7AP
England,Bowerfield Court,Assisted Living Facility,3 Broadwood Close,"Disley, Stockport",Cheshire,SK12 2NJ
England,Bowerfield House,Assisted Living Facility,3 Broadwood Close,"Disley, Stockport",Cheshire,SK12 2NJ
England,Bridge House,Assisted Living Facility,Farnham Road,Elstead,Surrey,GU8 6DB
England,Carmel Lodge,Assisted Living Facility,London Road,"Adlington, Macclesfield",Cheshire,SK10 4NJ
England,Cavendish Court,Assisted Living Facility,Horseshoe Lane,Alderley Edge,Cheshire,SK9 7QP
England,Clarendon Court,Assisted Living Facility,Beechwood Stapeley,Nantwich,Cheshire,CW5 7FY
England,Corinthian House,Assisted Living Facility,Green Hill Lane,"Upper Wortley, Leeds",West Yorkshire,LS12 4EZ
England,Furze Hill Lodge,Assisted Living Facility,Furze Hill,"Kinswood, Tadworth",Surrey,KT20 6EP
England,Hope Green,Assisted Living Facility,London Road,"Adlington, Macclesfield",Cheshire,SK10 4NJ
England,Manorhey Care Ctr,Assisted Living Facility,128-130 Stretford Road,Urmston Manchester,Lancashire,M41 9LT
England,Monread Lodge,Assisted Living Facility,London Road,"Woomer Green, Hertfordshire",Hertfordshire,SG3 6HG
England,Rosedale,Assisted Living Facility,"The Old Vicarage, Catterick Rd",TBD,North Yorkshire,DL9 4DD
England,Water Royd House,Assisted Living Facility,Locke Road,"Gilroyd, Barnsley",South Yorkshire,S75 3QH
England,Willow Bank,Assisted Living Facility,5 Barwick Road,Leeds,West Yorkshire,LS15 8SE
England,Willowdene,Assisted Living Facility,Lizard Lane,"Sedgefield, Stockton on Tees",Durham,TS21 3ET
England,Windmill Court,Assisted Living Facility,St Minver,Nr Wadebridge,Cornwall,PL27 6RD
England,Ringway Mews,Assisted Living Facility,"5 Stancliffe Road, Wythenshawe",Manchester,Cheshire,M22 4RY
England,Westbury,Assisted Living Facility,(blank),Westbury/Wilshire,Wiltshire,BA133PR
England,Verulam House,Assisted Living Facility,Verulam Road,St. Albans,Hertfordshire,AL3 4DH
England,Cedar Court I,Assisted Living Facility,Elmbridge Road,Cranleigh,Surrey,GU6 8TX
England,Check House,Assisted Living Facility,61 Beer Road,Seaton,Devon,EX12 2ST
England,Silverleigh,Assisted Living Facility,Silver Street,Axminster,Devon,EX13 5AF
England,Thornfield,Assisted Living Facility,87 Scalwell Lane,Seaton,Devon,EX12 2ST
England,Aspen Court,Assisted Living Facility,Hope Corner Lane,Taunton,Somerset,TA2 7PB
England,Campania,Assisted Living Facility,18-20 Ellenborough Park South,Weston-Super-Mare,Somerset,BS23 1XN
England,Casa Di Lusso,Assisted Living Facility,Bower Lane,Bridgwater,Somerset,TA6 4GU
England,Cedar Lodge,Assisted Living Facility,Hope Corner Lane,Taunton,Somerset,TA2 7PB
England,Clarence Park,Assisted Living Facility,7-9 Clarence Road North,Weston-Super-Mare,Somerset,BS23 4AT
England,Immacolata House,Assisted Living Facility,Portway I,Langport,Somerset,TA10 0NQ
England,La Fontana,Assisted Living Facility,Foldhill Lane,Martock,Somerset,TA12 6PQ
England,Serenita Care,Assisted Living Facility,15-19 Clevedon Road,Weston-Super-Mare,Somerset,BS23 1DA
England,Stuart House,Assisted Living Facility,21-23 Clevedon Road,Weston-Super-Mare,Somerset,BS23 1DA
England,Vane Hill,Assisted Living Facility,15-72 Vane Hill Road,Torquay,Devon,TQ1 2BZ
England,Watford House,Assisted Living Facility,Watford Road,New Mills,Derbyshire,SK22 4EJ
England,Acton Care,Assisted Living Facility,48 Gunnersbury Ln,London,Middlesex,W3 8EF
England,Hatfield,Assisted Living Facility,Tamblin Way,Hatfield,Hertfordshire,AL10 9EZ
England,St. Mary's Court,Assisted Living Facility,Deanery Hill,Braintree,Essex,CM7 5SR
England,Sycamore Court,Assisted Living Facility,"Fitzherbert Dr, Bear Road",Brighton,Sussex,BN2 4DU
England,The New Deanery,Assisted Living Facility,Deanery Hill,Braintree,Essex,CM7 5SR
England,The Lodge I,Assisted Living Facility,Back Lane,Penshall,Tyne & Wear,DH4 7ER
England,Amy Woodgate House,Assisted Living Facility,Nigel Fisher Way,Chessington,Surrey,KT9 2SN
England,Marlborough Court,Assisted Living Facility,7 Copperfield Rd,London,Thamesmead,SE28 8QA
England,Murrayfield,Assisted Living Facility,77 Dysons Road,London,Edmonton,EH12 6AY
England,Norwood Green,Assisted Living Facility,Tentelow Lane,Southall,Middlesex,UB2 4JA
England,Copper Beeches,Assisted Living Facility,5 Sylewood Close,Rochestor,Kent,ME1 3LL
England,Murdoch,Assisted Living Facility,1 Murdoch Road,Workingham,Berkshire,RG40 2DL
England,Woodbury,Assisted Living Facility,Jouldings Lane,Farley Hill,Berkshire,RG7 1UR
England,Hillside Lodge,Assisted Living Facility,Braeside,Berwick upon Tweed,Northumberland,TD15 2BY
England,Charlton Park,Assisted Living Facility,21 Cemetary Lane,Charlton,Greater London,SE7 8DZ
England,Emberbrook,Assisted Living Facility,16 Raphael Drive,Thames Ditton,Surrey,KT7 0BL
England,Headington,Assisted Living Facility,Roosevelt Drive,Headington,Oxfordshire,OX3 7XR
England,Hungerford,Assisted Living Facility,Wantage Road,Hungerford Newtown,Berkshire,RG17 0PN
England,Kingfisher House,Assisted Living Facility,St. Fabians Close,Newmarket,Suffolk,CB8 0EJ
England,Kingston,Assisted Living Facility,Jemmet Close,Kingston upon Thames,Surrey,KT2 7AJ
England,Lansdowne,Assisted Living Facility,Claremont Road,Cricklewood,London Borough of Barnet,NW2 1TU
England,Abigail Lodge,Assisted Living Facility,Goucester Road,Consett,Durham,DH8 7LB
England,Barrington Lodge,Assisted Living Facility,Berkshire Place,Bishop Auckland,Durham,DL 14 6XX
England,Bishopsmead Lodge,Assisted Living Facility,Vicarage Road,Bristol,Bristol,BS13 8ES
England,Brockwell Court,Assisted Living Facility,9 Cobden Street,Consett,Durham,NE23 1XX
England,Granby Rose,Assisted Living Facility,Granby Road,Harrogate,North Yorkshire,HG1 4SR
England,Harbour View,Assisted Living Facility,Bransty Road,Whitehaven,Cumbria,CA28 6HA
England,Harrogate Lodge,Assisted Living Facility,25 Harrogate Road,Leeds,West Yorkshire,LS7 3PD
England,Henleigh Hall,Assisted Living Facility,20 Abbey Lane Dell,Beauchief,Derbyshire,S8 0BZ
England,Hollie Hill,Assisted Living Facility,Durham Road,Stanley,Durham,DH9 6QZ
England,Maple Lodge,Assisted Living Facility,Woolwich Road,Sunderland,Tyne and Wear,SR5 5SF
England,Northlea Court,Assisted Living Facility,Northumbrian Way,Cramlington,Northumberland,NE23 1XX
England,Redwell Hills,Assisted Living Facility,St Ives Road,Leadgate,Durham,DH8 7SN
England,Regents View,Assisted Living Facility,Francis Way,Houghton-le-Spring,Durham,DH5 9EQ
England,Riverside Court,Assisted Living Facility,Salmoor Way,Maryport,Cumbria,CA15 8AZ
England,St Catherines,Assisted Living Facility,Queen Street,Bolton,Greater Manchester,BL6 6QU
England,The Granby,Assisted Living Facility,Granby Road,Harrogate,North Yorkshire,HG1 4SR
England,The Laurels,Assisted Living Facility,Francis Way,Houghton-le-Spring,Durham,DH5 9EQ
England,Warrior Park,Assisted Living Facility,Warrior Drive,Hartlepool,Durham,TS25 1EZ
England,The Lodge II,Assisted Living Facility,1a Knighton Rise,Leicester,Leicestershire,LE2 2RF
Florida,Abbey,Skilled Nursing Facility,7101 Dr. Martin Luther King Jr. Street North,St. Petersburg,Pinellas,33702
Florida,Alpine,Skilled Nursing Facility,3456 21st Avenue South,St. Petersburg,Pinellas,33711
Florida,Bartow,Skilled Nursing Facility,2055 Georgia St. East,Bartow,Polk,33830
Florida,Bay Pointe,Skilled Nursing Facility,4201 31st Street South,St. Petersburg,Pinellas,33712
Florida,Boca Ciega,Skilled Nursing Facility,1414 59th Street,Gulfport,Pinellas,33707
Florida,Boca Raton,Skilled Nursing Facility,755 Meadows Road,Boca Raton,Palm Beach,33486
Florida,Cape Coral,Skilled Nursing Facility,2629 Del Prado Blvd.,Cape Coral,Lee,33904
Florida,Carrollwood,Skilled Nursing Facility,15002 Hutchinson Road,Tampa,Hillsborough,33625
Florida,Casa Mora,Skilled Nursing Facility,1902 59th Street West,Bradenton,Manatee,34209
Florida,Clearwater,Skilled Nursing Facility,1270 Turner St.,Clearwater,Pinellas,33756
Florida,Community Convalescent,Skilled Nursing Facility,2202 West Oak Avenue,Plant City,Hillsborough,33563
Florida,Concordia Manor,Skilled Nursing Facility,321 13th Avenue North,St. Petersburg,Pinellas,33701
Florida,Deerfield Beach (Broward),Skilled Nursing Facility,401 East Sample Road,Pompano Beach,Broward,33064
Florida,Destination (fka Destin),Skilled Nursing Facility,195 Mattie M. Kelly Boulevard,Destin,Okaloosa,32541-2811
Florida,Egret Cove,Skilled Nursing Facility,550 62nd. St.,St. Petersburg,Pinellas,33707
Florida,Elegance Lake Worth,Assisted Living Facility,9948 Woodwind Lane,Lake Worth,Palm Beach,33467
Florida,Emerald Coast,Skilled Nursing Facility,114 3rd Street,Fort Walton Beach,Okaloosa,32548
Florida,Evergreen Woods,Skilled Nursing Facility,7045 Evergreen Woods Tr.,Spring Hill,Hernando,34608
Florida,First Coast,Skilled Nursing Facility,7723 Jasper Avenue,Jacksonville,Duval,32211
Florida,Groves,Skilled Nursing Facility,512 South 11th Street,Lake Wales,Polk,33853
Florida,Highland Pines,Skilled Nursing Facility,1111 South Highland Ave.,Clearwater,Pinellas,33756
Florida,Lake Miriam (Brandywyne),Skilled Nursing Facility,1801 North Lake Mariam Drive,Winter Haven,Polk,33884
Florida,Lake Montgomery (Avalon),Skilled Nursing Facility,1270 SW Main Blvd,Lake City,Columbia,32025
Florida,Lakeland Hills,Skilled Nursing Facility,610 East Bella Vista Dr.,Lakeland,Polk,33805
Florida,North Tampa,Skilled Nursing Facility,18940 Sunlake Boulevard,Lutz,Hillsborough,33558
Florida,Nursing Pavilion at Chipola,Skilled Nursing Facility,4294 3rd Ave,Marianna,Jackson,32446
Florida,Oakview (Doctor's Lake),Skilled Nursing Facility,833 Kingsley Avenue,Orange Park,Clay,32073
Florida,Palm Beaches,Skilled Nursing Facility,301 Northpointe Parkway,West Palm Beach,Palm Beach,33407
Florida,Pensacola (Park Place),Skilled Nursing Facility,1717 West Avery Street,Pensacola,Escambia,32501
Florida,Pompano,Skilled Nursing Facility,51 West Sample Road,Pompano Beach,Broward,33064
Florida,Sanford,Skilled Nursing Facility,950 Mellonville Avenue,Sanford,Seminole,32771
Florida,Sarasota,Skilled Nursing Facility,1524 East Avenue South,Sarasota,Sarasota,34239
Florida,Savannas Park (Emerald),Skilled Nursing Facility,1655 Southeast Walton Road,Port St. Lucie,Saint Lucie,34952
Florida,Scott Lake,Skilled Nursing Facility,800 Highway 540A E,Lakeland,Polk,33803
Florida,South Heritage,Skilled Nursing Facility,718 Lakeview Avenue South,St. Petersburg,Pinellas,33705
Florida,South Orange (Terra Vista),Skilled Nursing Facility,1730 Lucerne Terrace,Orlando,Orange,32806
Florida,Southside,Independent Living Facility,9601 Southbrook Drive,Jacksonville,Duval,32256
Florida,Tampa,Skilled Nursing Facility,4411 North Habana Avenue,Tampa,Hillsborough,33614
Florida,Tampa Lakes,Skilled Nursing Facility,750 Hayes Road,Lutz,Hillsborough,33549
Florida,Tarpon Bayou (Peninsula),Skilled Nursing Facility,515 Chesapeake Dr.,Tarpon Springs,Pinellas,34689
Florida,The Brookshire (Catalina Gardens),Assisted Living Facility,85 Bulldog Boulevard,Melbourne,Brevard,32901
Florida,The Fairway (Fairway Sun 'n' Pines/Sebring),Assisted Living Facility,5959 Sun 'N Lake Blvd,Sebring,Highlands,33872
Florida,Titusville,Skilled Nursing Facility,1705 Jess Parrish Court,Titusville,Brevard,32796
Florida,Treasure Isle,Skilled Nursing Facility,1735 North Treasure Drive,North Bay Village,Miami-Dade,33141
Florida,Valencia Hills Health & Rehab Ctr,Skilled Nursing Facility,1350 Sleepy Hill Road,Lakeland,Polk,33810
Florida,Windsor Woods,Skilled Nursing Facility,13719 Dallas Drive,Hudson,Pasco,34667
Florida,Winkler Court,Skilled Nursing Facility,3250 Winkler Avenue Exten,Fort Meyers,Lee,33916
Florida,Winter Haven,Skilled Nursing Facility,202 Avenue O NE,Winter Haven,Polk,33881
Florida,Barrington Terrace,Assisted Living Facility,5175 Tamiami Trail East,Naples,Collier,34113
Florida,Grand Villa of Port Charlotte,Assisted Living Facility,2500 Aaron Street,Port Charlotte,Charlotte,33952
Georgia,Bonterra Nursing Center,Skilled Nursing Facility,2801 Felton Drive,East Point,Fulton,30344
Georgia,Brighton Gardens of Buckhead,Assisted Living Facility,3088 Lenox Rd NE,Atlanta,Fulton,30324
Georgia,Cordelia Manor,Assisted Living Facility,1307 Blackshear Road,Cordele,Crisp,31015
Georgia,Fellowship Home at Brookside,Assisted Living Facility,470 Fellowship Home Lane,Valdosta,Lowndes,31602
Georgia,Fellowship Home at Nashville,Assisted Living Facility,1207 E. McPherson Ave.,Nashville,Lowndes,31602
Georgia,Macon Rehab & Healthcare (fka Laurel Baye Macon),Skilled Nursing Facility,505 Coliseum Dr,Macon,Bibb,31217
Georgia,Parkview (Legacy),Skilled Nursing Facility,460 Auburn Avenue,Atlanta,Fulton,30312
Georgia,Scepter (Parkside) (Snellville SNF),Skilled Nursing Facility,3000 Lenora Church Road SW,Snellville,Gwinnitt,30078
Georgia,Toccoa,Skilled Nursing Facility,633 Falls Road,Toccoa,Stephens,30577
Georgia,Washington,Skilled Nursing Facility,112 Hospital Drive,Washington,Wilkes,30673
Georgia,Chapters Buford,Assisted Living Facility,4355 S Lee Street,Buford,Gwinnett,30518
Georgia,Chapters Canton,Assisted Living Facility,125 Riverstone Terrace,Canton,Cherokee,30114
Idaho,Arbor Valley (fka Capital Care/Apex),Skilled Nursing Facility,8211 Ustick Road,Boise,Ada,83704
Idaho,Cherry Ridge (fka Emmett Canyon),Skilled Nursing Facility,501 West Idaho Boulevard,Emmett,Gem,83617
Idaho,Payette,Skilled Nursing Facility,1019 Third Avenue South,Payette,Payette,83661
Idaho,Royal Plaza (Lewiston),Skilled Nursing Facility,2870 Juniper Drive,Lewiston,Nez Perce,83501
Idaho,Teton (Idaho Falls),Skilled Nursing Facility,3111 Channing Way,Idaho,Bonneville,83404
Idaho,Twin Falls Care Center,Skilled Nursing Facility,674 Eastland Drive,Twin Falls,Twin Falls,83301
Idaho,Orchard View,Skilled Nursing Facility,1014 Burrell Avenue,Lewiston,Nez Perce,83501
Illinois,Friendship Village ALF,Assisted Living Facility,350 W Schaumburg Road,Schaumburg,Cook,60194
Illinois,Friendship Village ILF,Independent Living Facility,350 W Schaumburg Road,Schaumburg,Cook,60194
Illinois,Friendship Village Memory Care,Assisted Living Facility,350 W Schaumburg Road,Schaumburg,Cook,60194
Illinois,Friendship Village SNF,Skilled Nursing Facility,350 W Schaumburg Road,Schaumburg,Cook,60194
Illinois,Orland Park,Assisted Living Facility,16051 South La Grange Road,Orland Park,Cook,60467
Indiana,Allison Pointe,Skilled Nursing Facility,5226 E. 82nd Street,Indianapolis,Hamilton,46250
Indiana,American Village Harrison Hall,Skilled Nursing Facility,2026 E 54th St.,Indianapolis,Marion,46220
Indiana,American Village Lincoln Lodge,Independent Living Facility,2026 E 54th St.,Indianapolis,Marion,46220
Indiana,American Village Patriot Place,Independent Living Facility,2026 E 54th St.,Indianapolis,Marion,46220
Indiana,American Village Washington Manor,Assisted Living Facility,2026 E 54th St.,Indianapolis,Marion,46220
Indiana,Arbor Grove Village,Skilled Nursing Facility,1021 East Central Avenue,Greensburg,Decatur,47240
Indiana,Autumn Ridge,Skilled Nursing Facility,600 Washington St,Wabash,Wabash,46992
Indiana,Avalon Village,Skilled Nursing Facility,200 Kingston Circle Drive,Ligonier,Noble,46767
Indiana,Beech Grove ILF,Independent Living Facility,2002 Albany St.,Beech Grove,Marion,46107
Indiana,Beech Grove SNF,Skilled Nursing Facility,2002 Albany St.,Beech Grove,Marion,46107
Indiana,Bridgewater,Skilled Nursing Facility,14751 Carey Road,Carmel,Hamilton,46033
Indiana,Brookville Healthcare Center,Skilled Nursing Facility,11049 State Road 101,Brookville,Franklin,47012
Indiana,Caroleton Rehab & Healthcare (fka Trinity Mission Connorsville),Skilled Nursing Facility,2500 Iowa Avenue,Connersville,Fayette,47331
Indiana,Charlestown Place (Providence),Skilled Nursing Facility,4915 Charlestown Road,New Albany,Floyd,47150
Indiana,Clinton Gardens,Skilled Nursing Facility,375 S 11th St,Clinton,Vermillion,47842
Indiana,DeKalb,Skilled Nursing Facility,520 West Liberty Street,Butler,DeKalb,46721
Indiana,Doctors Neuro,Specialty Hospital,411-417 South Whitlock Street,Bremen,Marshall,46506
Indiana,Dyer,Skilled Nursing Facility,2300 Great Lakes Drive,Dyer,Lake,46311
Indiana,Eagle Creek,Behaviorial Health - SUD,4102 Shore Drive,Indianapolis,Hamilton,46254
Indiana,Eagle Valley Meadows,Skilled Nursing Facility,2233 W Jefferson St.,Indianapolis,Marion,46227
Indiana,Edgewater Woods,Skilled Nursing Facility,1809 N Madison Ave,Anderson,Madison,46011
Indiana,Evergreen Crossings,Skilled Nursing Facility,5404 Georgetown Road,Indianapolis,Hamilton,46254
Indiana,Forest Creek Village,Skilled Nursing Facility,525 E Thompson Rd.,Indianapolis,Marion,46214
Indiana,Franklin Meadows,Skilled Nursing Facility,1285 W Jefferson St.,Franklin,Johnson,46131
Indiana,Greenfield,Skilled Nursing Facility,200 Green Meadows Drive,Greenfield,Hancock,46140
Indiana,Greenwood,Skilled Nursing Facility,377 Westridge Boulevard,Greenwood,Johnson,46142
Indiana,Harcourt Terrace (Greenbriar),Skilled Nursing Facility,8181 Harcourt Road,Indianapolis,Marion,46260
Indiana,Harrison,Skilled Nursing Facility,150 Beechmont Drive,Corydon,Harrison,47112
Indiana,Harrison Terrace (Wellington),Skilled Nursing Facility,1924 Wellesley Boulevard,Indianapolis,Marion,46219
Indiana,Heritage Park ALF,Assisted Living Facility,2001 Hobson Rd.,Fort Wayne,Allen,46805
Indiana,Heritage Park ILF-GH,Independent Living Facility,2001 Hobson Rd.,Fort Wayne,Allen,46805
Indiana,Heritage Park SNF,Skilled Nursing Facility,2001 Hobson Rd.,Fort Wayne,Allen,46805
Indiana,Hillcrest Centre for Health & Rehab,Skilled Nursing Facility,203 Sparks Ave.,Jeffersonville,Clark,47130
Indiana,Kokomo,Skilled Nursing Facility,429 W. Lincoln Road,Kokomo,Howard,46902
Indiana,Lowell Health Care Center,Skilled Nursing Facility,710 Michigan Ave.,Lowell,Lake,46356
Indiana,Maple Park Village,Skilled Nursing Facility,776 N Union St,Westfield,Hamilton,46074
Indiana,Monticello Asst. Living & Healthcare,Skilled Nursing Facility,1120 N Main St.,Monticello,White,47960
Indiana,North Woods Village,Skilled Nursing Facility,2233 W Jefferson St.,Kokomo,Howard,46901
Indiana,Rivercrest,Long Term Acute Care Hospital,1625 East Jefferson Boulevard,Mishawaka,St. Joseph,46545
Indiana,Riverside Village,Skilled Nursing Facility,1400 W Franklin,Elkhart,Elkhart,46516
Indiana,Riverview Village,Skilled Nursing Facility,586 Eastern Blvd.,Clarksville,Clark,47129
Indiana,Riverwalk Village,Skilled Nursing Facility,295 Westfield Rd.,Nobleville,Hamilton,46060
Indiana,Rolling Hills,Skilled Nursing Facility,3625 St. Joseph Road,New Albany,Floyd,47150
Indiana,Rosegate Village (Rosebud),Skilled Nursing Facility,2050 Chester Boulevard,Richmond,Wayne,47374
Indiana,Rosewalk at Lutherwoods ALF,Assisted Living Facility,1302 N Lesley Ave.,Indianapolis,Marion,46219
Indiana,Rosewalk Village - Lafayette,Skilled Nursing Facility,1903 Union St.,Lafayette,Tippecanoe,47904
Indiana,Rosewalk Village of Indianapolis,Skilled Nursing Facility,1302 N Lesley Ave.,Indianapolis,Marion,46219
Indiana,Salem Crossing,Skilled Nursing Facility,200 Connie Ave,Salem,Washington,47167
Indiana,Sellersburg,Skilled Nursing Facility,7823 Old Hwy #60,Sellersburg,Clark,47172
Indiana,Seymour Crossing,Skilled Nursing Facility,707 S Jackson Park Dr,Seymour,Jackson,47274
Indiana,Southpointe,Skilled Nursing Facility,4904 War Admiral Drive,Indianapolis,Hamilton,46237
Indiana,Southwood,Skilled Nursing Facility,2222 Margaret Avenue,Terre Haute,Vigo,47802
Indiana,Spring Mill Meadows ILF- GH,Independent Living Facility,2140 W 86th St.,Indianapolis,Marion,46260
Indiana,Spring Mill Meadows SNF,Skilled Nursing Facility,2140 W 86th St.,Indianapolis,Marion,46260
Indiana,Springhill Village,Skilled Nursing Facility,1001 E Springhill Dr.,Terre Haute,Vigo,47802
Indiana,Summit City,Skilled Nursing Facility,2940 North Clinton Street,Fort Wayne,Allen,46805
Indiana,Timbers of Jasper,Skilled Nursing Facility,2909 Howard Dr,Jasper,Dubois,47546
Indiana,University Nursing Center,Skilled Nursing Facility,1564 S. University Blvd,Upland,Grant,46989
Indiana,Valley View,Skilled Nursing Facility,333 W. Mishawaka Road,Elkhart,Elkhart,46517
Indiana,Washington Health Care,Skilled Nursing Facility,8201 W. Washington St.,Indianapolis,Marion,46237
Indiana,Wedgewood,Skilled Nursing Facility,101 Potters Lane,Clarksville,Clark,47129
Indiana,Whitewater Commons Senior Living,Skilled Nursing Facility,215 West High Street,Liberty,Union,47353
Indiana,Wildwood,Skilled Nursing Facility,7301 E. 16th Street,Indianapolis,Hamilton,46219
Indiana,Williamsport,Skilled Nursing Facility,200 Short Street,Williamsport,Warren,47993
Indiana,Zionsville Meadows ALF,Assisted Living Facility,675 S Ford Rd.,Zionsville,Boone,46077
Indiana,Zionsville Meadows ILF-GH,Independent Living Facility,675 S Ford Rd.,Zionsville,Boone,46077
Indiana,Zionsville Meadows SNF,Skilled Nursing Facility,675 S Ford Rd.,Zionsville,Boone,46077
Indiana,Hawthorne (Madison),Skilled Nursing Facility,7465 S. Madison Avenue,Indianapolis,Marion,46227
Iowa,Heritage,Skilled Nursing Facility,200 Clive Dr. SW,Cedar Rapids,Linn,52404
Iowa,Linn Haven (New Hampton),Skilled Nursing Facility,530 South Linn Avenue,New Hampton,Chickasaw,50659
Iowa,Creston (Crest Haven),Skilled Nursing Facility,1000 East Howard Street,Creston,Union,50801
Iowa,Muscatine,Skilled Nursing Facility,3440 Mulberry Ave,Muscatine,Muscatine,52761
Iowa,Onawa (Elmwood),Skilled Nursing Facility,222 15th Street,Onawa,Monona,51040
Iowa,Rock Rapids ALF (Premiere Estates),Assisted Living Facility,1510 South Carroll Street,Rock Rapids,Lyon,51246
Iowa,Toledo,Skilled Nursing Facility,403 Grandview Drive,Toledo,Tama,52342
Iowa,Jersey,La Haule,Assisted Living Facility,La Route de L'Isle,St. Brelade,Contra Costa
Iowa,Silver Springs,Assisted Living Facility,La Route des Genets,St. Brelade,Contra Costa,JE3 8DB
Kansas,Arma,Skilled Nursing Facility,605 East Melvin Street,Arma,Crawford,66712
Kansas,Colby,Skilled Nursing Facility,105 East College Drive,Colby,Thomas,67701
Kansas,Hutchinson,Skilled Nursing Facility,2301 North Severance,Hutchinson,Reno,67502
Kansas,Lakewood Heights,Skilled Nursing Facility,1319 South Seville Street,Wichita,Sedgwick,67209
Kansas,Lakewood of Haviland,Skilled Nursing Facility,200 North Main Street,Haviland,Kiowa,67059
Kansas,Lakewood of Pratt,Skilled Nursing Facility,1221 Larimer Street,Pratt,Pratt,67124
Kansas,Legacy Park,Skilled Nursing Facility,407 North Locust Street,Peabody,Marion,66866
Kansas,McPherson,Skilled Nursing Facility,1601 North Main Street,McPherson,McPherson,67460
Kansas,Onaga,Skilled Nursing Facility,500 Western Street,Onaga,Pottawatomie,66521
Kansas,Oswego,Skilled Nursing Facility,1104 Ohio Street,Oswego,Labette,67356
Kansas,Smith Center,Skilled Nursing Facility,117 West 1st Street,Smith Center,Smith,66967
Kansas,Wellington,Skilled Nursing Facility,1600 West 8th Street,Wellington,Sumner,67152
Kentucky,Clinton County Care and Rehabilitation,Skilled Nursing Facility,404 Washington Street,Albany,Clinton,42602
Kentucky,Gallatin,Skilled Nursing Facility,499 Center Street,Warsaw,Gallatin,41095
Kentucky,Hermitage Care & Rehab,Skilled Nursing Facility,1614 West Parrish Avenue,Owensboro,Daviess,42301
Kentucky,Homestead Lexington,Skilled Nursing Facility,1608 Versailles Road,Lexington,Fayette,40504
Kentucky,Homestead New Castle,Skilled Nursing Facility,50 Adams Street,New Castle,Henry,40050
Kentucky,Lee County Care & Rehab,Skilled Nursing Facility,246 East Main Street,Beattyville,Lee,41311
Kentucky,Mayfair Manor Care & Rehabilitation,Skilled Nursing Facility,3300 Tates Creek Road,Lexington,Fayette,40502
Kentucky,Morgantown Care & Rehab,Skilled Nursing Facility,206 South Warren Street,Morgantown,Butler,42261
Kentucky,Mountain Manor of Prestonsburg,Skilled Nursing Facility,147 N. Highland Avenue,Prestonsburg,Floyd,41653
Kentucky,Pine Meadows,Skilled Nursing Facility,1608 Hill Rise Drive,Lexington,Fayette,40504
Kentucky,Riverview Manor,Skilled Nursing Facility,79 Sparrow Lane,Prestonsburg,Floyd,41653
Kentucky,Signature Healthcare of East Louisville,Skilled Nursing Facility,2529 Six Mile Lane,Louisville,Jefferson,40220
Kentucky,Signature Healthcare of Georgetown,Skilled Nursing Facility,102 Pocahontas Trail,Georgetown,Scott,40324
Kentucky,Signature Healthcare of South Louisville,Skilled Nursing Facility,1120 Cristland Road,Louisville,Jefferson,40214
Kentucky,The Oaks,Assisted Living Facility,1010 Richwood Way,LaGrange,Oldham,40031
Kentucky,The Richwood,Skilled Nursing Facility,1012 Richwood Way,LaGrange,Oldham,40031
Kentucky,Twin Oaks,Assisted Living Facility,98 Adams Street,New Castle,Henry,40050
Kentucky,Valley View Health Care and Rehab (Spencer Co.),Skilled Nursing Facility,625 Taylorsville Road,Taylorsville,Spencer,40071
Louisiana,Claiborne,Skilled Nursing Facility,1536 Claiborne,Shreveport,Caddo,71103
Louisiana,Columns CCC,Skilled Nursing Facility,3025 Fourth Street,Jonesville,Catahoula,71343
Louisiana,Garden Court,Skilled Nursing Facility,4405 Airline Drive,Bossier City,Bossier,71111-2058
Louisiana,Gonzales,Skilled Nursing Facility,905 West Cornerview Road,Gonzales,Ascension,70737
Louisiana,Heritage - Bossier,Skilled Nursing Facility,2575 Airline Drive,Bossier City,Bossier,71111-5812
Louisiana,Kaplan,Skilled Nursing Facility,1300 West 8th Street,Kaplan,Vermillion,70548
Louisiana,Many North,Skilled Nursing Facility,120 Natchitoches Hwy 6 East,Many,Sabine,71449
Louisiana,Marrero,Skilled Nursing Facility,5301 August Lane,Marrero,Jefferson,70072
Louisiana,Meadowview,Skilled Nursing Facility,400 Meadowview Drive,Minden,Webster,71055
Louisiana,New Iberia Manor North,Skilled Nursing Facility,1803 Jane Street,New Iberia,Iberia,70563
Louisiana,New Iberia Manor South,Skilled Nursing Facility,600 Bayard Street,New Iberia,Iberia,70560
Louisiana,Oak Haven CCC,Skilled Nursing Facility,1515 Highway 107,Center Point,Avoyelles,71323
Louisiana,Patterson,Skilled Nursing Facility,910 Lia Street,Patterson,St. Mary,70392
Louisiana,Pierremont,Skilled Nursing Facility,725 Mitchell Lane,Shreveport,Caddo,71106
Louisiana,St. Clare Manor,Skilled Nursing Facility,7435 Bishop Ott Drive,Baton Rouge,East Baton Rouge,70806
Louisiana,Thibodaux ALF (Maison Bienvenue),Assisted Living Facility,152 Percy Brown Road,Thibodaux,Lafourche,70301
Louisiana,Thibodaux New SNF,Skilled Nursing Facility,150 Percy Brown Road,Thibodaux,Lafourche,70301
Louisiana,Vivian,Skilled Nursing Facility,912 South Pecan Street,Vivian,Caddo,71082
Maryland,Anchorage Nursing & Rehab Center,Skilled Nursing Facility,105 Times Square,Salisbury,Wicomico,21801
Maryland,Blue Point Nursing & Rehab,Skilled Nursing Facility,2525 West Belvedere,Baltimore,Baltimore City,21215
Maryland,Clinton Nursing & Rehab,Skilled Nursing Facility,9211 Stuart Lane,Clinton,Prince Georges,20735
Maryland,Ellicott City Health & Rehab Center,Skilled Nursing Facility,3000 North Ridge Road,Ellicott City,Howard,21043
Maryland,Forestville Health & Rehab Center,Skilled Nursing Facility,7420 Marlboro Pike,Forestville,Prince Georges,20747
Maryland,Holly Hills,Skilled Nursing Facility,531 Stevenson Lane,Towson,Baltimore,21286
Maryland,Kensington Nursing & Rehab,Skilled Nursing Facility,3000 McComas Avenue,Kensington,Montgomery,20895
Maryland,Laurelwood Care Center at Elkton,Skilled Nursing Facility,100 Laurel Drive,Elkton,Cecil,21921
Maryland,Northwest Health & Rehab Center,Skilled Nursing Facility,4601 Pall Mall Road,Baltimore,Baltimore City,21215
Maryland,Pleasant View,Skilled Nursing Facility,4101 Baltimore National Pike,Mount Airy,Carroll,21771
Maryland,South River Health & Rehab,Skilled Nursing Facility,144 Washington Road,Edgewater,Anne Arundel,21037
Maryland,Silver Spring,Skilled Nursing Facility,13908 New Hampshire Avenue,Silver Spring,Montgomery,20904
Massachusetts,Brewster,Assisted Living Facility,0 Harwich Road,Brewster,Barnstable,02631
Massachusetts,Mayflower ALF,Assisted Living Facility,579 Buck Island Road,West Yarmouth,Barnstable,02673
Massachusetts,Mayflower SNF,Skilled Nursing Facility,579 Buck Island Road,West Yarmouth,Barnstable,02673
Massachusetts,Mill Hill Residence (Vara),Assisted Living Facility,164 MA 28,West Yarmouth,Barnstable,02673
Massachusetts,Norumbega Point,Assisted Living Facility,99 Norumbega Rd.,Weston,Middlesex,02493
Michigan,Autumnwood of McBain,Skilled Nursing Facility,220 Hughston St.,McBain,Missaukee,49657
Michigan,Brittany Manor,Skilled Nursing Facility,3615 East Ashman Street,Midland,Midland,48642
Michigan,Carson City,Skilled Nursing Facility,620 N. Second Street,Carson City,Montcalm,48811
Michigan,Chene,Skilled Nursing Facility,2295 East Vernor Highway,Detroit,Wayne,48207
Michigan,Christian Park H.C.C.,Skilled Nursing Facility,2415 Fifth Avenue South,Escanaba,Delta,49829
Michigan,Christian Park Village,Skilled Nursing Facility,2525 Seventh Avenue South,Escanaba,Delta,49829
Michigan,Coldwater,Skilled Nursing Facility,90 North Michigan Avenue,Coldwater,Branch,49036
Michigan,Courtney Manor,Skilled Nursing Facility,1167 Eas Hopson St.,Bad Axe,Huron,48413
Michigan,Ely Manor,Skilled Nursing Facility,1200 Ely St,Allegan,Allegan,49010
Michigan,Fremont (Transitional Health),Skilled Nursing Facility,4554 West 48th Street,Fremont,Newaygo,49412
Michigan,Fulton,Skilled Nursing Facility,4735 Ranger Road,Perrinton,Gratiot,48871
Michigan,Galesburg,Skilled Nursing Facility,1080 North 35th Street,Galesburg,Kalamazoo,49053
Michigan,Hartford,Skilled Nursing Facility,6700 Outer Drive,Detroit,Wayne,48235
Michigan,Hickory,Skilled Nursing Facility,951 Hickory Creek Blvd.,Temperance,Monroe,48182
Michigan,Hudsonville,Skilled Nursing Facility,3650 Van Buren Road,Hudsonville,Ottawa,49426
Michigan,Kent,Skilled Nursing Facility,350 North Center Street,Lowell,Kent,49331
Michigan,Kith Haven,Skilled Nursing Facility,G-1069 Ballenger Highway,Flint,Genesee,48504
Michigan,Manor of Farmington,Skilled Nursing Facility,21017 Middlebelt Rd.,Farmington Hills,Oakland,48336
Michigan,Manor of Novi,Skilled Nursing Facility,24500 Meadowbrook,Novi,Oakland,48375
Michigan,Maplewood of Sandy Creek,Assisted Living Facility,425 East Elm Street,Wayland,Allegan,49348
Michigan,Mt. Pleasant,Skilled Nursing Facility,400 South Crapo Street,Mt. Pleasant,Isabella,48858
Michigan,Ovid Healthcare,Skilled Nursing Facility,9480 E M-21,Ovid,Clinton,48866
Michigan,Regency at Bluffs Park,Skilled Nursing Facility,355 Huronview Blvd.,Ann Arbor,Washtenaw,48103
Michigan,Regency at Lansing West,Skilled Nursing Facility,12200 Broadbent Road,Lansing,Clinton,48917
Michigan,Regency at Waterford,Skilled Nursing Facility,1901 N Telegraph Road,Waterford,Oakland,48328
Michigan,Regency at Whitmore Lake,Skilled Nursing Facility,8633 Main St.,Whitmore Lake,Washtenaw,48189
Michigan,Regency Heights Detroit,Skilled Nursing Facility,19100 West Seven Mile Rd.,Detroit,Wayne,48219
Michigan,Royalton,Skilled Nursing Facility,288 Peace Blvd.,St. Joseph,Berrien,49085
Michigan,Sandy Creek,Skilled Nursing Facility,425 East Elm Street,Wayland,Allegan,49348
Michigan,Troy,Skilled Nursing Facility,2785 W. Maple Road,Troy,Oakland,48084
Michigan,West Bloomfield (Notting Hill),Skilled Nursing Facility,6535 Drake Rd.,West Bloomfield,Oakland,48322
Michigan,Willowbrook,Skilled Nursing Facility,4436 Beecher Road,Flint,Genesee,48532
Michigan,Auburn Hills,Assisted Living Facility,3151 Walton Boulevard,Auburn Hills,Oakland,48326
Michigan,Allegra,Skilled Nursing Facility,434 W North Street,Jackson,Jackson,49202
Michigan,Aria,Skilled Nursing Facility,707 Armstrong Road,Lansing,Ingham,48911
Minnesota,North Ridge ALF,Assisted Living Facility,5500 Boone Avenue North,New Hope,Hennepin,55428
Minnesota,North Ridge Apts,Independent Living Facility,5500 Boone Avenue North,New Hope,Hennepin,55428
Minnesota,North Ridge CC,Skilled Nursing Facility,5430 Boone Avenue North,New Hope,Hennepin,55428
Mississippi,Columbia,Skilled Nursing Facility,1506 North Main Street,Columbia,Marion,39429
Mississippi,Cornerstone,Skilled Nursing Facility,302 Alcorn Drive,Corinth,Alcorn,38834
Mississippi,Courtyard,Skilled Nursing Facility,501 S. Locust Street,McComb,Pike,39648-4336
Mississippi,Crystal,Skilled Nursing Facility,902 John Pittman Drive,Greenwood,Leflore,38930
Mississippi,Delta,Skilled Nursing Facility,200 Martin Luther King Drive,Cleveland,Bolivar,38732
Mississippi,Great Oaks,Skilled Nursing Facility,111 Chase Street,Byhalia,Marshall,38611
Mississippi,Grenada,Skilled Nursing Facility,1966 Hill Drive,Grenada,Grenada,38901
Mississippi,Hilltop Manor,Skilled Nursing Facility,101 Kirkland Street,Union,Neshoba,39365-3205
Mississippi,Holly Springs,Skilled Nursing Facility,1315 Highway 4 East,Holly Springs,Marshall,38635
Mississippi,Indianola,Skilled Nursing Facility,401 US Highway 82 West,Indianola,Sunflower,38751
Mississippi,Natchez,Skilled Nursing Facility,344 Arlington Avenue,Natchez,Adams,39120
Mississippi,Oaks,Skilled Nursing Facility,3716 Highway 39 North,Meridian,Lauderdale,39301-1013
Mississippi,Picayune,Skilled Nursing Facility,1620 Read Road,Picayune,Pearl River,39466
Mississippi,Starkville Manor,Skilled Nursing Facility,1001 Hospital Road,Starkville,Oktibbeha,39759-2125
Mississippi,The Bluffs,Skilled Nursing Facility,2850 Porters Chapel Road,Vicksburg,Warren,39180
Mississippi,West Point Community Living Center,Skilled Nursing Facility,2056 North Eshman Avenue,West Point,Clay,39773
Mississippi,Woodlands,Skilled Nursing Facility,102 Woodchase Park Drive,Clinton,Hinds,39056
Mississippi,Yazoo City,Skilled Nursing Facility,925 Calhoun Avenue,Yazoo City,Yazoo,39194
Mississippi,Grand Trace (Glenburney),Skilled Nursing Facility,555 John R. Junkin Drive,Natchez,Adams,39120-4709
Mississippi,Middleton Oaks (Winona),Skilled Nursing Facility,627 Middleton Road,Winona,Montgomery,38967-2021
Missouri,Grandview Healthcare Center,Skilled Nursing Facility,201 Grand Avenue,Washington,Franklin,63090
Montana,Hot Springs,Skilled Nursing Facility,600 First Avenue North,Hot Springs,Sanders,59845
Montana,Polson,Skilled Nursing Facility,9 14th Avenue West,Polson,Lake,59860
Nebraska,North Platte,Skilled Nursing Facility,2900 West E Street,North Platte,Lincoln,69101
Nebraska,Kenesaw (Haven Home),Skilled Nursing Facility,100 West Elm Street,Kenesaw,Adams,68956
Nebraska,Pierce,Skilled Nursing Facility,515 East Main Street,Pierce,Pierce,68767
Nevada,Desert Hope,Behaviorial Health - SUD,3441 South Eastern Avenue,Las Vegas,Clark,89169
Nevada,Desert Lane Care Center,Skilled Nursing Facility,660 Martin L King Boulevard,Las Vegas,Clark,89106
Nevada,Gardnerville,Skilled Nursing Facility,1573 Muller Parkway,Gardnerville,Douglas,89410
Nevada,Horizon Specialty Hospital,Specialty Hospital,640 Martin L King Boulevard,Las Vegas,Clark,89106
Nevada,Horizon Specialty Hospital of Henderson,Long Term Acute Care Hospital,8550 South Eastern Avenue,Henderson,Clark,89123
Nevada,Las Vegas,Traumatic Brain Injury,7690 Carmen Boulevard,Las Vegas,Clark,89128
Nevada,Mountain View,Skilled Nursing Facility,201 Koontz Lane,Carson City,Carson City,89701
Nevada,North Las Vegas Care Center,Skilled Nursing Facility,3215 East Cheyenne Ave.,North Las Vegas,Clark,89030
Nevada,Resolutions Las Vegas,Behaviorial Health - SUD,1000 North Main Street,Las Vegas,Clark,89101
New Hampshire,(Oceanside) Seacoast,Skilled Nursing Facility,22 Tuck Road,Hampton,Rockingham,03842
New Hampshire,Elmwood (Claremont),Skilled Nursing Facility,"RFD 3 Box 47, Highway 120 North",Hanover,Sullivan,03743
New Hampshire,Partridge House,Assisted Living Facility,777 (779 per Tax Assessor) Lafayette Road (22 Tuck Rd),Hampton,Rockingham,03842
New Jersey,Hillsborough,Assisted Living Facility,600 Auten Road,Hillsborough Township,Somerset,08844
New Jersey,Princeton,Assisted Living Facility,1 Hospital Drive,Plainsboro Township,Middlesex,08536
New Mexico,Bloomfield,Skilled Nursing Facility,803 Hacienda Lane,Bloomfield,San Juan,87413
New Mexico,Casa Real,Skilled Nursing Facility,1650 Galisteo Street,Santa Fe,Santa Fe,87505
New Mexico,Clayton,Skilled Nursing Facility,419 Harding Street,Clayton,Union,88415
New Mexico,Red Rocks,Skilled Nursing Facility,3720 Church Rock Street,Gallup,McKinley,87301
New Mexico,Silver City,Skilled Nursing Facility,3514 Fowler Avenue,Silver City,Grant,88061
New Mexico,Albuquerque Heights,Skilled Nursing Facility,103 Hospital Loop NE,Albuquerque,Bernalillo,87109
New Mexico,Canyon Transitional Rehab,Skilled Nursing Facility,10101 Lagrima De Oro N.E.,Albuquerque,Bernalillo,87111
New York,Maplewood 2nd Avenue,Assisted Living Facility,1802-1810 2nd Avenue,New York,Bronx,10128
North Carolina,Abbotts Creek,Skilled Nursing Facility,877 Hill Everhart Road,Lexington,Davidson,27295
North Carolina,Alexandria Place (Gastonia),Skilled Nursing Facility,1770 Oak Hollow Road,Gastonia,Gaston,28054
North Carolina,Alston Brook (Davidson),Skilled Nursing Facility,4748 Old Salisbury Rd,Lexington,Davidson,27295
North Carolina,Autumn Care of Biscoe,Skilled Nursing Facility,401 Lambert Road,Biscoe,Montgomery,27209
North Carolina,Autumn Care of Cornelius,Skilled Nursing Facility,19530 Mt. Zion Parkway,Cornelius,Cumberland,28031
North Carolina,Autumn Care of Drexel,Skilled Nursing Facility,307 Oakland Avenue,Drexel,Burke,28619
North Carolina,Autumn Care of Fayetteville,Skilled Nursing Facility,1401 71st School Road,Fayetteville,Cumberland,28314
North Carolina,Autumn Care of Marion,Skilled Nursing Facility,1264 Airport Road,Marion,McDowell,28752
North Carolina,Autumn Care of Marshville,Skilled Nursing Facility,311 W. Phifer Street,Marshville,Union,28103
North Carolina,Autumn Care of Myrtle Grove,Skilled Nursing Facility,5725 Carolina Beach Road,Wilmington,New Hanover,28412
North Carolina,Autumn Care of Nash,Skilled Nursing Facility,1210 Eastern Avenue,Nashville,Nash,27856
North Carolina,Autumn Care of Raeford,Skilled Nursing Facility,1206 N. Fulton Street,Raeford,Hoke,28376
North Carolina,Autumn Care of Salisbury,Skilled Nursing Facility,1505 Bringle Ferry Road,Salisbury,Rowan,28145
North Carolina,Autumn Care of Saluda,Skilled Nursing Facility,501 Esseola Drive,Saluda,Polk,28773
North Carolina,Autumn Care of Shallotte,Skilled Nursing Facility,237 Mulberry Street,Shallotte,Brunswick,28470
North Carolina,Autumn Care of Waynesville,Skilled Nursing Facility,360 Old Balsam Road,Waynesville,Haywood,28786
North Carolina,Brightmoor (Piedmont),Skilled Nursing Facility,610 W Fisher St,Salisbury,Rowan,28144
North Carolina,Brunswick,Skilled Nursing Facility,9600 No 5 School Road,Ash,Columbus,28420
North Carolina,Carrington Place (Matthews),Skilled Nursing Facility,600 Fullwood Lane,Matthews,Mecklenburg,28105
North Carolina,Chatham,Skilled Nursing Facility,72 Chatham Business Drive,Pittsboro,Chatham,27312
North Carolina,Davie Health & Rehab (Mocksville New Build),Skilled Nursing Facility,498 Madison Road,Mocksville,Davie,27028
North Carolina,Emerald Ridge,Skilled Nursing Facility,25 Reynolds Mountain Boulevard,Woodfin,Buncombe,28804
North Carolina,Forest Glen,Skilled Nursing Facility,1101 Hartwell Street,Garner,Wake,27529
North Carolina,Forrest Oakes,Skilled Nursing Facility,620 Heathwood Drive,Albemarle,Stanly,28001-8604
North Carolina,Green Tree Ridge,Skilled Nursing Facility,70 Sweeten Creek Road,Asheville,Buncombe,28803
North Carolina,Kannapolis,Skilled Nursing Facility,1810 Concord Lake Road,Kannapolis,Cabarrus,28083-6434
North Carolina,Lotus Village (Allegheny),Skilled Nursing Facility,179 Combs Street,Sparta,Alleghany,28675
North Carolina,Mount Olive Healthcare,Skilled Nursing Facility,228 Smith Chapel Road,Mount Olive,Wayne,28365
North Carolina,Oak Grove,Skilled Nursing Facility,518 Old US Highway 221,Rutherfordton,Rutherford,28139-8670
North Carolina,Old Knox Commons (Lakeside),Skilled Nursing Facility,13825 Hunton Lane,Huntersville,Mecklenburg,28078
North Carolina,Ranson Ridge,Assisted Living Facility,13910 Hunton Lane,Huntersville,Mecklenburg,28078
North Carolina,Salisbury,Skilled Nursing Facility,215 Lash Drive,Salisbury,Rowan,28147
North Carolina,Siler City Healthcare,Skilled Nursing Facility,"900 West Dolphin Street, P.O. Box 789",Siler City,Chatham,27344
North Carolina,Triad (Meridian),Skilled Nursing Facility,707 N. Elm Street,Highpoint,Guilford,27262
North Carolina,Valley View,Skilled Nursing Facility,551 Kent Street,Andrews,Cherokee,28901-8088
North Carolina,Walnut Cove,Skilled Nursing Facility,511 Windmill Street,Walnut Cove,Stokes,27052
North Carolina,Warsaw Health & Rehab Center,Skilled Nursing Facility,214 Lanefield Road,Warsaw,Duplin,28398
North Carolina,Wellington,Skilled Nursing Facility,1000 Tandal Place,Knightdale,Wake,27545
North Carolina,Westwood,Skilled Nursing Facility,625 Ashland Street,Archdale,Randolph,27263-2943
North Carolina,Willowbrook,Skilled Nursing Facility,333 East Lee Avenue,Yadkinville,Yadkin,27055-8132
North Carolina,Wilora Lake,Skilled Nursing Facility,6001 Wilora Lake Road,Charlotte,Mecklenburg,28212-2833
North Carolina,Pembroke,Skilled Nursing Facility,310 East Wardell Drive,Pembroke,Robeson,28372
North Carolina,Biltmore Haven (Oaks Sweeten),Skilled Nursing Facility,3864 Sweeten Creek Road,Arden,Buncombe,28704
North Carolina,Hibriten Mountain (Gateway),Skilled Nursing Facility,2030 Harper Avenue,Lenoir,Caldwell,28645
North Carolina,Highfield (Cary),Skilled Nursing Facility,6590 Tryon Road,Cary,Wake,27518-7052
Ohio,Best Care Nursing & Rehab Center,Skilled Nursing Facility,2159 Dogwood Ridge,Wheelersburg,Scioto,45694
Ohio,Bradford Place,Skilled Nursing Facility,1302 Millville Avenue,Hamilton,Butler,45013
Ohio,Carillon (fka Dunbar),Skilled Nursing Facility,320 Albany Street,Dayton,Montgomery,45417
Ohio,Crawford Manor,Skilled Nursing Facility,1802 Crawford Road,Cleveland,Cuyahoga,44106
Ohio,Cuyahoga Falls,Assisted Living Facility,190 W. Bath Road,Cuyahoga Falls,Summit,44223
Ohio,Defiance,Skilled Nursing Facility,1701 South Jefferson Avenue,Defiance,Defiance,43512
Ohio,Eagle Creek,Skilled Nursing Facility,141 Spruce Lane,West Union,Adams,45693
Ohio,Forest Hills,Skilled Nursing Facility,8700 Moran Road,Cincinnati,Hamilton,45244
Ohio,Gahanna,Skilled Nursing Facility,5151 North Hamilton Road,Columbus,Garner,43230
Ohio,Heather SNF,Skilled Nursing Facility,12460 Bass Lake Road,Chardon,Geauga,44024
Ohio,Hillsboro,Skilled Nursing Facility,175 Chillicothe Avenue,Hillsboro,Highland,45133
Ohio,Huber Heights,Skilled Nursing Facility,5440 Charlesgate Road,Huber Heights,Montgomery,45424
Ohio,Ivy Woods Manor,Skilled Nursing Facility,2025 Wyoming Avenue,Cincinnati,Hamilton,45205
Ohio,Kenwood Terrace,Skilled Nursing Facility,7450 Keller Road,Cincinnati,Hamilton,45243
Ohio,Liberty (Heather Hill),Assisted Living Facility,12350 Bass Lake Road,Chardon,Geauga,44024
Ohio,Madeira Health,Skilled Nursing Facility,6940 Stiegler Lane,Madeira,Hamilton,45243
Ohio,Massillon,Skilled Nursing Facility,2000 Sherman Circle NE,Massillon,Stark,44646
Ohio,Mt. Vernon,Skilled Nursing Facility,13 Avalon Road,Mt. Vernon,Knox,43050
Ohio,New London,Skilled Nursing Facility,204 West Main Street,New London,Huron,44851
Ohio,Norworth,Skilled Nursing Facility,6830 North High Street,Worthington,Franklin,43085
Ohio,Patrician/Diplomate,Skilled Nursing Facility,9001 West 130th Street,North Royalton,Cuyahoga,44133
Ohio,Pleasant Ridge,Skilled Nursing Facility,5501 Verulam Avenue,Cincinnati,Hamilton,45213
Ohio,Siena Woods,Skilled Nursing Facility,6125 North Main Street,Dayton,Montgomery,45415
Ohio,Southbrook,Skilled Nursing Facility,2299 S Yellow Springs Street,Springfield,Clark,45506
Ohio,Springfield (Allen View),Skilled Nursing Facility,2615 Derr Road,Springfield,Clark,45503
Ohio,Springfield SUD,Behaviorial Health - SUD,2317 E. Home Road,Springfield,Clark,45503
Ohio,Steubenville,Skilled Nursing Facility,500 Stanton Boulevard,Steubenville,Jefferson,43952
Ohio,Sunrise Vista (Canton),Behaviorial Health - Psych,1223 North Market Street,Canton,Stark,44714
Ohio,The Willows/Indian Hills,Skilled Nursing Facility,1500 East 191st Street,Euclid,Cuyahoga,44117
Ohio,Twinsburg,Assisted Living Facility,2463 Sussex Boulevard,Twinsburg,Summit,44087
Ohio,University Manor,Skilled Nursing Facility,2186 Ambleside Drive,Cleveland,Cuyahoga,44106
Ohio,Walden,Skilled Nursing Facility,5700 Karl Road,Columbus,Franklin,43229
Ohio,West Carrollton,Skilled Nursing Facility,115 Elmwood Circle,West Carrollton,Montgomery,45449
Ohio,West Columbus,Skilled Nursing Facility,441 Norton Road,Columbus,Franklin,43228
Ohio,Wexford Care Center,Skilled Nursing Facility,3889 East Galbraith Road,Cincinnati,Hamilton,45236
Ohio,Wexford Place,Skilled Nursing Facility,3875 East Galbraith Road,Cincinnati,Hamilton,45236
Ohio,Worthington,Skilled Nursing Facility,1030 High Street,Worthington,Franklin,43085
Ohio,Evergreen Manor,Skilled Nursing Facility,924 Charlies Way,Montpelier,Williams,43543
Ohio,St. Mary's (Grande Lake),Skilled Nursing Facility,1209 Indiana Avenue,St. Mary's,Auglaize,45885
Oklahoma,Ponca City Nursing Home,Skilled Nursing Facility,1400 N. Waverly St.,Ponca City,Kay,74602
Oklahoma,Shawnee Colonial Estates Nursing Home,Skilled Nursing Facility,535 W. Federal St.,Shawnee,Pottawatomie,74801
Oklahoma,Westhaven Nursing Home,Skilled Nursing Facility,1215 S. Western Rd.,Stillwater,Payne,74074
Oregon,Aspen Ridge,Assisted Living Facility,1025 NE Purcell Boulevard,Bend,Deschutes,97701
Oregon,Cascade Valley (Oregon Freewater),Assisted Living Facility,1010 NE Third,Milton Freewater,Umatilla,97862
Oregon,Evergreen Oregon (LaGrande),Skilled Nursing Facility,91 Aries Lane,La Grande,Union,97850
Oregon,Menlo Park,Skilled Nursing Facility,745 NE 122 Avenue,Portland,Multnomah,97230
Oregon,Milton Freewater,Skilled Nursing Facility,120 Elzora Street,Milton Freewater,Umatilla,97862
Oregon,Newberg,Assisted Living Facility,3802 Hayes Street,Newberg,Yamhill,97132
Oregon,Redmond,Assisted Living Facility,1620/1622 SW Quartz Avenue,Redmond,Deschutes,97756
Oregon,Regent Court,Assisted Living Facility,400 NW Elks Drive,Corvallis,Benton,97330
Oregon,River Valley Tualatin,Assisted Living Facility,19200 SW 65th Avenue,Tualatin,Clackamas,97062
Oregon,Rose Valley Cottages,Independent Living Facility,33800 SE Frederick Street,Scapoose,Columbia,97056
Oregon,Rose Valley Scappoose,Assisted Living Facility,33800 SE Frederick Street,Scapoose,Columbia,97056
Oregon,Roseburg,Assisted Living Facility,3400 NW Edenbower Boulevard,Roseburg,Douglas,97470
Oregon,The Dalles,Skilled Nursing Facility,1023 West 25th,The Dalles,Wasco,97058
Oregon,Heron Pointe,Assisted Living Facility,504 Gwinn Street E,Monmouth,Polk,97361
Pennsylvania,Ambler,Skilled Nursing Facility,32 South Bethlehem Pike,Ambler,Montgomery,19002
Pennsylvania,Amity Village,Independent Living Facility,1000 Stacie Drive,Hazleton,Luzerne,18201
Pennsylvania,Baldwin Health Center,Skilled Nursing Facility,1717 Skyline Drive,Pittsburgh,Allegheny,15227
Pennsylvania,Blue Bell,Assisted Living Facility,795 Penllyn Blue Bell Pike,Blue Bell,Montgomery,19422
Pennsylvania,Broad Mountain,Skilled Nursing Facility,500 W Laurel St,Frackville,Schuylkill,17931
Pennsylvania,Brookline Cottages,Independent Living Facility,"RD #1, Box 463",Mifflintown,Juniata,17059
Pennsylvania,Brookline Manor,Skilled Nursing Facility,"RD #1, Box 463",Mifflintown,Juniata,17059
Pennsylvania,Brookline Village,Assisted Living Facility,"RD #1, Box 463",Mifflintown,Juniata,17059
Pennsylvania,Broomall Manor,Skilled Nursing Facility,43 Church Lane,Broomall,Delaware,19008
Pennsylvania,Bryn Mawr,Skilled Nursing Facility,956 Railroad Avenue,Bryn Mawr,Delaware,19010
Pennsylvania,Collegeville,Assisted Living Facility,1421 South Collegeville Road,Collegeville,Montgomery,19426
Pennsylvania,Cottages at Locust Grove,Independent Living Facility,69 Cottage Road,Mifflin,Juniata,17058
Pennsylvania,Darway Elder Care & Rehab Center,Skilled Nursing Facility,5865 PA Route 154,Forksville,Sullivan,18616
Pennsylvania,Dunmore,Skilled Nursing Facility,1000 Mill Street,Dunmore,Lackawanna,18512
Pennsylvania,Edison Manor,Skilled Nursing Facility,222 West Edison Avenue,New Castle,Lawrence,16101
Pennsylvania,Exton,Assisted Living Facility,200 Sunrise Boulevard,Exton,Chester,19341
Pennsylvania,Gettysburg,Skilled Nursing Facility,595 Biglerville Road,Gettysburg,Adams,17325
Pennsylvania,Grayson View,Assisted Living Facility,29 Grayson View Court,Selinsgrove,Snyder,17870
Pennsylvania,Highlands Care Center,Skilled Nursing Facility,"P.O. Box 10, Main Street",Laporte,Sullivan,18626
Pennsylvania,Julia Ribaudo,Skilled Nursing Facility,1404 Golf Park Drive,Lake Ariel,Wayne,18436
Pennsylvania,Luther Ridge at Seiders Hill,Assisted Living Facility,160 Red Horse Road,Pottsville,Schuykill,17901
Pennsylvania,Manor at Penn Village,Skilled Nursing Facility,51 Route 204,Selinsgrove,Snyder,17870
Pennsylvania,Manor at St. Luke Village,Skilled Nursing Facility,1711 East Broad Street,Hazleton,Luzerne,18201
Pennsylvania,Milford Convalescent Home,Skilled Nursing Facility,264 Route 6 & 209,Milford,Pike,18337
Pennsylvania,Pavilion at St. Luke Village,Skilled Nursing Facility,1000 Stacie Drive,Hazleton,Luzerne,18201
Pennsylvania,Pennknoll Village,Skilled Nursing Facility,208 Pennknoll Road,Everett,Bedford,15537
Pennsylvania,Pennsfield Apartments,Independent Living Facility,51 Route 204,Selinsgrove,Snyder,17870
Pennsylvania,Richfield Senior Living,Skilled Nursing Facility,"631 Main St, PO Box 248",Richfield,Juniata,17086
Pennsylvania,Riverside Nursing & Rehab,Skilled Nursing Facility,500 West Hospital Street,Taylor,Lackawanna,18517
Pennsylvania,Rolling Hills Manor,Skilled Nursing Facility,17350 Old Turnpike Road,Millmont,Union,17845
Pennsylvania,Scenery Hill Manor,Skilled Nursing Facility,680 Lions Health Camp Road,Indiana,Indiana,15701
Pennsylvania,Silver Lake,Skilled Nursing Facility,905 Tower Road,Bristol,Bucks,19007
Pennsylvania,Sunset Ridge (Bloomsburg),Skilled Nursing Facility,3298 Ridge Road,Bloomsburg,Columbia,17815
Pennsylvania,Symphony Square,Assisted Living Facility,35 Old Lancaster Road,Bala Cynwyd,Montgomery,19004
Pennsylvania,Towamencin,Assisted Living Facility,900 Towamencin Avenue,Lansdale,Montgomery,19446
Pennsylvania,Twin Pines (fka Chatham Acres),Skilled Nursing Facility,315 East London Grove Road,Chatham,Chester,19390
Pennsylvania,Wexford House,Skilled Nursing Facility,9850 Old Perry Highway,Wexford,Allegheny,15090
Pennsylvania,Locust Grove I,Skilled Nursing Facility,69 Cottage Road,Mifflin,Juniata,17058
Rhode Island,Coventry,Skilled Nursing Facility,10 Woodland Drive,Coventry,Kent,02816
Rhode Island,Greenville,Skilled Nursing Facility,735 (745 per Tax Assessor) Putnam Pike,Greenville,Providence,02828
Rhode Island,Warren,Skilled Nursing Facility,642 Metacom Avenue,Warren,Bristol,02885
Scotland,Bearehill,Assisted Living Facility,24 Castle Street,Brechin,Brechin,DD9 6JU
Scotland,Buchanan Campus,Assisted Living Facility,1 Grampian Way,Glasgow,Bearsden,G61 4SP
Scotland,Craighead,Assisted Living Facility,To be determined,Newport-on-Tay,Norwood,DD6 8DW
Scotland,Dounemount,Assisted Living Facility,Gellymill Street,Macduff,Banff,AB45 3QL
Scotland,Earlsferry House,Assisted Living Facility,Williamsburgh,Leven,Elie,KY9 1BA
Scotland,Garioch Care Home,Assisted Living Facility,Commercial Road,Inverurie,Aberdeenshire,AB51 3TX
Scotland,Gowrie House,Assisted Living Facility,West Albert Road,Kirkcaldy,Kirkcaldy,KY1 1DL
Scotland,Hallhouse,Assisted Living Facility,21 Main Road,Kilmamock,Fenwick,KA3 6AH
Scotland,Havencourt,Assisted Living Facility,Woodcot Gardens,Stonehaven,Forest Road,AB39 2ZH
Scotland,Henderson House,Assisted Living Facility,2 Link Road,Dunfermline,Dalgety Bay,KY11 9GW
Scotland,Laurels,Assisted Living Facility,Station Road,Aberdeen,Woodside,AB24 2UL
Scotland,Mayfield West,Assisted Living Facility,31 Queen's Road,Edinburgh,Aberdeen,AB15 4ZN
Scotland,Meadowvale,Assisted Living Facility,1 Bridgend Court,Bathgate,Bathgate,EH48 2BF
Scotland,Annfield Nursing Home,Assisted Living Facility,58 Annfield Gardens,Stirling,Stirlingshire,FK8 2BJ
Scotland,Castle View,Assisted Living Facility,Glasgow Rd/Castlegreen St,Dunbarton,W. Dunbartonshire,G82 1JU
Scotland,Finavon Court,Assisted Living Facility,5 Carseburn Rd,"5 Carseburn Rd, Forfar, DD8 3HW",Angus,DD8 3HW
Scotland,Forth Bank,Assisted Living Facility,Drip Road,Kildean,Stirling,FK8 1RR
Scotland,Greenfield Park,Assisted Living Facility,291 Myreside St,Glasgow,Lancashire,G32 6BX
Scotland,Kyle Court,Assisted Living Facility,23 Lochore Ave,Paisley,Renfrewshire,PA3 4BY
Scotland,Linlithgow Nursing Home,Assisted Living Facility,45 St Ninian's Rd,Linlithgow,West Lothian,EH49 7BW
Scotland,Mavis Bank,Assisted Living Facility,Lennox Crescent,Bishopsbriggs,East Dunbartonshire,G64 1XE
Scotland,Murrayfield House Nursing Home,Assisted Living Facility,66 Murrayfield Ave,Edinburgh,Midlothian,EH12 6AY
Scotland,Springfield Bank,Assisted Living Facility,Cockpen Crescent,"Bonnyrigg, Midlothian",Midlothian,EH19 3PN
Scotland,Ailsa Lodge,Assisted Living Facility,21 Erskine Ferry Rd,Bishopton,Renfrewshire,PA7 5PP
Scotland,Ardenlee,Assisted Living Facility,72 Bullwood Rd,Dunoon,Argyllshire,PA23 7QJ
Scotland,Ashgrove,Assisted Living Facility,229 Alexandra Parade,Dunoon,Argyllshire,PA23 8HD
Scotland,Burnfoot,Assisted Living Facility,Ayr Road,Patna,Ayrshire,KA6 7LP
Scotland,Cathay,Assisted Living Facility,St. Leonards Road,Forres,Morayshire,IV36 2RE
Scotland,Crosslaw House,Assisted Living Facility,Home Street,Lanark,Lanarkshire,ML11 9AZ
Scotland,Doonbank,Assisted Living Facility,Ayr Road,Patna,Ayrshire,KA6 7JW
Scotland,Fleet Valley,Assisted Living Facility,43 Fleet Street,Castle Douglas,Kirkcudbrightshire,DG7 2JT
Scotland,Glebe House,Assisted Living Facility,Armour Wynd,Dalmellington,Ayrshire,KA6 7PS
Scotland,Hutton Park,Assisted Living Facility,60 Greenock Road,Largs,Ayrshire,KA30 8PD
Scotland,Marchmont,Assisted Living Facility,1 Alderwood Road,Port Glasgow,Renfrewshire,PA14 5LE
Scotland,Struan Lodge,Assisted Living Facility,54 Balgreen Avenue,Edinburgh,Midlothian,EH12 5SU
Scotland,Windyhall,Assisted Living Facility,3 Southpark Road,Ayr,Ayrshire,KA7 2TL
Scotland,Angusfield,Assisted Living Facility,226 Queens Road,Aberdeen,Aberdeenshire,AB15 8DN
Scotland,Benarty View,Assisted Living Facility,17 Rowan Lea,Kelty,Fife,KY4 0FY
Scotland,Campsie View,Assisted Living Facility,Canal Street,Kirkintilloch,East Dunbartonshire,G66 1QY
Scotland,Colinton,Assisted Living Facility,69 Spylaw Road,Edinburgh,City of Edinburgh,EH10 5BP
Scotland,Craigie Knowes,Assisted Living Facility,Craigieknowes Road,Perth,Perthshire,PH2 0DG
Scotland,Cumbrae Lodge,Assisted Living Facility,Castle Park Road,Irvine,North Ayrshire,KA12 8SZ
Scotland,Gilmerton,Assisted Living Facility,9 Moredunvale Road,Moredun,N/A,EH17 7QU
Scotland,Gilmerton NCC,Assisted Living Facility,10 Moredunvale Road,Moredun,N/A,EH17 7QU
Scotland,Guthrie House,Assisted Living Facility,12 Lasswade Road,Edinburgh,City of Edinburgh,EH16 6RZ
Scotland,Lammermuir,Assisted Living Facility,East Links Road,Dunbar,East Lothian,EH42 1LT
Scotland,Lunardi Court,Assisted Living Facility,39 Robertson Road,Cupar,Fife,KY15 5YR
Scotland,St Margarets,Assisted Living Facility,5 East Suffolk Road,Edinburgh,City of Edinburgh,EH16 5PH
South Carolina,Cheraw (Chesterfield),Skilled Nursing Facility,1150 State Road,Cheraw,Chesterfield,29520
South Carolina,Cottages (Brushy Creek),Skilled Nursing Facility,101 Cottage Creek Circle,Greer,Greenville,29650
South Carolina,Edisto (Orangeburg or Riverside),Skilled Nursing Facility,575 Stonewall Jackson Blvd,Orangeburg,Orangeburg,29115
South Carolina,Lancaster,Skilled Nursing Facility,2044 Pageland Highway,Lancaster,Lancaster,29721
South Carolina,Laurel Baye of Greenville,Skilled Nursing Facility,661 Rutherford Rd,Greenville,Greenville,29609
South Carolina,Magnolia Place of Spartanburg,Skilled Nursing Facility,8020 White Avenue,Spartanburg,Spartanburg,29303
South Carolina,Spartanburg (Valley Falls),Skilled Nursing Facility,400 Locust Grove Road,Spartanburg,Spartanburg,29303
South Carolina,St. Matthews (Calhoun),Skilled Nursing Facility,601 Dantzler Street,Saint Matthews,Calhoun,29135
South Carolina,Gables at Pelham,Assisted Living Facility,1306 Pelham Road,Greenville,Greenville,29615
South Carolina,Bloom at Belfair,Independent Living Facility,60 Oak Forest Rd,Bluffton,Beaufort,29910
Tennessee,Bridge at Monteagle,Skilled Nursing Facility,26 Second Street,Monteagle,Grundy,37356
Tennessee,Bridge at Ridgely,Skilled Nursing Facility,117 N. Main Street,Ridgely,Lake,38080
Tennessee,Bridge at Rockwood,Skilled Nursing Facility,5580 Roane State Hwy,Rockwood,Roane,37854
Tennessee,Bridge at South Pittsburg,Skilled Nursing Facility,201 East 10 Street,South Pittsburg,Marion,37380
Tennessee,Buchanan Place (Claiborne),Skilled Nursing Facility,"902 Buchanan Road, P.O. Box 505",New Tazewell,Claiborne,37825
Tennessee,Camden Healthcare & Rehabilitation,Skilled Nursing Facility,197 Hospital Drive,Camden,Benton,38320
Tennessee,Cumberland Village,Skilled Nursing Facility,136 Davis Lane,LaFollette,Campbell,37766
Tennessee,Dover Care Center,Skilled Nursing Facility,"537 Spring Street, P.O. Box 399",Dover,Stewart,37058
Tennessee,Elizabethton (fka Pine Ridge),Skilled Nursing Facility,1200 Spruce Lane,Elizabethtown,Carter,37643
Tennessee,Greystone Health Care Center,Skilled Nursing Facility,181 Dunlap Road,Blountville,Sullivan,37617
Tennessee,Huntingdon Health & Rehab Center,Skilled Nursing Facility,635 High Street,Huntingdon,Carroll,38344
Tennessee,Jefferson City ALF,Assisted Living Facility,129 Mossy Creek Drive,Jefferson City,Jefferson,37760
Tennessee,Jefferson City Health & Rehab Center,Skilled Nursing Facility,283 West Broadway Blvd,Jefferson City,Jefferson,37760
Tennessee,Mountain City Care & Rehab,Skilled Nursing Facility,919 Medical Park Drive,Mountain City,Johnson,37683
Tennessee,Norris Academy,Behaviorial Health - Psych,101 First Quality Drive,Andersonville,Anderson,37705
Tennessee,Pickett Care & Rehab,Skilled Nursing Facility,129 Hillcrest Drive,Byrdstown,Pickett,38549
Tennessee,Pine Meadows Health Care,Skilled Nursing Facility,700 Nuckolls Road,Bolivar,Hardeman,38008
Tennessee,Puryear,Skilled Nursing Facility,220 College Street,Puryear,Henry,38251
Tennessee,Rainbow Rehab & Healthcare (Memphis),Skilled Nursing Facility,8119 Memphis-Arlington Road,Bartlett,Shelby,38133
Tennessee,Ripley Healthcare & Rehab Center,Skilled Nursing Facility,118 Halliburton Road,Ripley,Lauderdale,38063
Tennessee,Rock Springs,Assisted Living Facility,640 Rock Springs Road,Kingsport,Sullivan,37664
Tennessee,Rogersville ALF,Assisted Living Facility,1341 East Main Street,Rogersville,Hawkins,37857
Tennessee,Signature Healthcare of Cleveland,Skilled Nursing Facility,2750 Executive Park,Cleveland,Bradley,37312
Tennessee,Signature Healthcare of Erin,Skilled Nursing Facility,278 Rocky Hollow Road,Erin,Houston,37061
Tennessee,Signature Healthcare of Fentress County,Skilled Nursing Facility,208 Duncan Street North,Jamestown,Fentress,38556
Tennessee,Signature Healthcare of Greeneville,Skilled Nursing Facility,106 Holt Court,Greeneville,Greene,37743
Tennessee,Signature Healthcare of Memphis,Skilled Nursing Facility,1150 Dovecrest Road,Memphis,Shelby,38134
Tennessee,Signature Healthcare of Rogersville,Skilled Nursing Facility,109 Highway 70 North,Rogersville,Hawkins,37857
Tennessee,Smyrna Care Center,Skilled Nursing Facility,200 Mayfield Drive,Smyrna,Rutherford,37167
Tennessee,Spring City Care & Rehab,Skilled Nursing Facility,331 Hinch Street,Spring City,Rhea,37381
Tennessee,Spring Gate Rehab & Healthcare Center,Skilled Nursing Facility,3909 Covington Pike,Memphis,Shelby,38135
Tennessee,Standing Stone Care & Rehab,Skilled Nursing Facility,410 West Crawford Ave,Monterey,Putnam,38574
Tennessee,Westmoreland Care & Rehab,Skilled Nursing Facility,1559 New Highway 52,Westmoreland,Sumner,37186
Tennessee,Willow Ridge,Skilled Nursing Facility,215 Richardson Way,Maynardville,Union,37807
Texas,Advance Diagnostic Hospital East,Acute Care Hospital,12950 East Freeway,Houston,Harris,77015
Texas,Arapaho (Richardson),Skilled Nursing Facility,1111 Rockingham Lane,Richardson,Dallas,75080
Texas,Arbor Hills (fka Eagle Lake),Skilled Nursing Facility,535 South Austin Road,Eagle Lake,Colorado,77434
Texas,Ashford Hall,Skilled Nursing Facility,2021 Shoaf Drive,Irving,Dallas,75061
Texas,Ballinger (fka Heritage Oaks),Skilled Nursing Facility,2001 6th Street,Ballinger,Runnells,76821
Texas,Barton Valley (fka Monte Siesta),Skilled Nursing Facility,4501 Dudmar Drive,Austin,Travis,78735
Texas,Bertram Nursing,Skilled Nursing Facility,540 E. Hwy 29,Bertram,Burnet,78605
Texas,Birchwood,Skilled Nursing Facility,110 West Highway 64,Cooper,Delta,75432
Texas,Bluebonnet,Skilled Nursing Facility,696 FM 99,Karnes City,Karnes,78118
Texas,Brentwood Terrace,Skilled Nursing Facility,2885 Stillhouse Road,Paris,Lamar,75462
Texas,Bridgecrest,Skilled Nursing Facility,14100 Karissa Court,Houston,Harris,77049
Texas,Brownwood,Skilled Nursing Facility,101 Miller Drive,Brownwood,Brown,76801
Texas,Casa Rio Health Care,Skilled Nursing Facility,6211 S. New Braunfels Avenue,San Antonio,Bexar,78223
Texas,Castle Hills (Alamo),Skilled Nursing Facility,8020 Blanco Road,San Antonio,Bexar,78216
Texas,Cedar Ridge (fka Countryside),Skilled Nursing Facility,1700 N. Washington St.,Pilot Point,Denton,76258
Texas,Champions,Assisted Living Facility,14050 Cutten Road,Houston,Harris,77069
Texas,Conroe (fka Woodland Manor),Skilled Nursing Facility,99 Rigby Owen Road,Conroe,Montgomery,77304
Texas,Corpus North (Retama),Skilled Nursing Facility,2322 Morgan Ave.,Corpus Christi,Nueces,78405
Texas,Cottonwood,Skilled Nursing Facility,2224 North Carroll Boulevard,Denton,Denton,76201
Texas,Crane Nursing & Rehab,Skilled Nursing Facility,699 Campus Drive,Crane,Crane,79731
Texas,Deerings,Skilled Nursing Facility,1020 North County Road West,Odessa,Ector,79763
Texas,DeLeon,Skilled Nursing Facility,809 East Navarro Avenue,DeLeon,Comanche,76444
Texas,Diboll,Skilled Nursing Facility,900 S Temple Drive,Diboll,Angelina,75941
Texas,Dove Hill,Skilled Nursing Facility,1315 East State Highway 22,Hamilton,Hamilton,76531
Texas,Eden Estates,Independent Living Facility,1997 Forest Ridge Drive,Bedford,Tarrant,76021
Texas,Edgewood,Skilled Nursing Facility,1101 Windbell Drive,Mesquite,Dallas,75149
Texas,Estates (fka Fort Worth),Skilled Nursing Facility,201 Sycamore School Road,Fort Worth,Tarrant,76134
Texas,Forest Park N&R (fka Premier Dallas),Skilled Nursing Facility,6825 Harry Hines Blvd,Dallas,Dallas,75235
Texas,Forney (Ridgecrest),Skilled Nursing Facility,561 E. Ridgecrest Road,Forney,Kaufman,75126
Texas,Fort Stockton,Skilled Nursing Facility,501 North Sycamore Street,Fort Stockton,Pecos,79735
Texas,Fortress Health & Rehab of Rock Prairie,Skilled Nursing Facility,1105 Rock Prairie Road,College Station,Brazos,77845
Texas,Gilmer,Skilled Nursing Facility,703 North Titus,Gilmer,Upshur,75644
Texas,Golden Creek,Skilled Nursing Facility,2100 Dove Crossing Lane,Navasota,Grimes,77868
Texas,Graham Oaks Care Center,Skilled Nursing Facility,1325 First Street,Graham,Young,76450
Texas,Greenhill Villas,Skilled Nursing Facility,2530 Greenhill Road,Mt. Pleasant,Titus,75455
Texas,Greenhouse,Behaviorial Health - SUD,2301 Avenue J,Arlington,Tarrant,76006
Texas,Gulf Shores (fka Falfurrias),Skilled Nursing Facility,1301 South Terrell Street,Falfurrias,Brooks,78355
Texas,Hillcrest of North Dallas (fka Premier Hillcrest),Skilled Nursing Facility,18648 Hillcrest Rd,Dallas,Collin,75252
Texas,Hogan Park Nursing & Rehab,Skilled Nursing Facility,3203 Sage Street,Midland,Midland,79705
Texas,Humble,Skilled Nursing Facility,8450 Will Clayton Parkway,Humble,Harris,77338
Texas,Katy,Skilled Nursing Facility,1525 Tull Drive,Katy,Harris,77449
Texas,Kemp Care Center,Skilled Nursing Facility,1351 South Elm Street,Kemp,Kaufman,75143
Texas,Kerens Care Center,Skilled Nursing Facility,809 NE 4th Street,Kerens,Navarro,75144
Texas,Lake Highlands (fka Doctors),Skilled Nursing Facility,9009 White Rock Trail,Dallas,Dallas,75238
Texas,Lake Lodge,Skilled Nursing Facility,3800 Marina Drive,Lake Worth,Tarrant,76135
Texas,Lakeview (fka Winnsboro),Skilled Nursing Facility,502 East Coke Road,Winnsboro,Wood,75494
Texas,Lampstand Health & Rehab of Bryan,Skilled Nursing Facility,2001 E 29th Street,Bryan,Brazos,77802
Texas,Levelland (fka Lynwood),Skilled Nursing Facility,803 South Alamo Road,Levelland,Hockley,79336
Texas,Lily Springs (fka Spring Oaks),Skilled Nursing Facility,901 Central Texas Expressway,Lampasas,Lampasas,76550
Texas,Lone Star Ranch (fka Kleberg),Skilled Nursing Facility,316 General Cavazos Boulevard,Kingsville,Kleberg,78363
Texas,Medi Park W,Independent Living Facility,7404 Wallace Boulevard,Amarillo,Potter,79106
Texas,Memorial City (Village),Skilled Nursing Facility,1341 Blalock Rd.,Houston,Harris,77055
Texas,Midwestern,Skilled Nursing Facility,601 Midwestern Parkway,Wichita Falls,Wichita,76302
Texas,Mira Vista Court,Skilled Nursing Facility,7021 Bryant Irvin Road,Fort Worth,Tarrant,76132
Texas,Normandy Terrace,Skilled Nursing Facility,841 Rice Road,San Antonio,Bexar,78220
Texas,North Brownsville Medical Plaza,Medical Office Building,5700 N Expressway,Brownsville,Cameron,78526
Texas,North Pointe,Skilled Nursing Facility,7804 Virgil Anthony Boulevard,Watauga,Tarrant,76148
Texas,North Star (fka Bonham),Skilled Nursing Facility,709 West Fifth Street,Bonham,Fannin,75418
Texas,Northshore,Independent Living Facility,401 Northshore Boulevard,Portland,San Patricio,78374
Texas,Prairie Meadows (fka Regency Manor),Skilled Nursing Facility,1615 11th Street,Floresville,Wilson,78114
Texas,Renaissance (fka Italy),Skilled Nursing Facility,220 Davenport Street,Italy,Ellis,76651
Texas,Resolutions Arlington,Behaviorial Health - SUD,1075 Wet N Wild Way,Arlington,Tarrant,76011
Texas,River City Care Center,Skilled Nursing Facility,921 Nolan Street,San Antonio,Bexar,78202
Texas,Rockwood Manor,Skilled Nursing Facility,2000 N Main Street,Midland,Midland,79705
Texas,Sage (Lamesa) Healthcare Center,Skilled Nursing Facility,1201 N 15th Street,Lamesa,Dawson,79331
Texas,San Gabriel,Skilled Nursing Facility,4100 College Park Drive,Round Rock,Williamson,78665
Texas,Sandy Lake,Skilled Nursing Facility,1410 East Sandy Lake Road,Coppell,Dallas,75019
Texas,Seabury Nursing & Rehab,Skilled Nursing Facility,2443 W 16th Street,Odessa,Ector,79763
Texas,Seven Oaks,Skilled Nursing Facility,901 Seven Oaks Road,Bonham,Fannin,75418
Texas,Shady Shores of San Saba,Skilled Nursing Facility,2400 West Brown Street,San Saba,San Saba,76877
Texas,Sienna,Skilled Nursing Facility,2510 West 8th Street,Odessa,Ector,79763
Texas,Songbird Lodge,Skilled Nursing Facility,2500 Songbird Circle,Brownwood,Brown,76801
Texas,St. Theresa Nursing & Rehab,Skilled Nursing Facility,10350 Montana Avenue,El Paso,El Paso,79925
Texas,Sterling Hills (fka Nolan),Skilled Nursing Facility,705 NE Georgia Avenue,Sweetwater,Nolan,79556
Texas,Sunflower Park Health Care,Skilled Nursing Facility,1803 Highway 243 East,Kaufman,Kaufman,75142
Texas,Texas City (fka Seabreeze),Skilled Nursing Facility,6602 Memorial Dr.,Texas City,Galveston,77591
Texas,Treemont Healthcare & Rehab Center,Skilled Nursing Facility,"5550 Harvest Hill Road, Suite 500",Dallas,Dallas,75230
Texas,Truman W Smith Children Center,Skilled Nursing Facility,2200 West Upshur Ave (West Highway 80),Gladewater,Upshur,75647
Texas,Twin Pines,Skilled Nursing Facility,3301 East Mockingbird Lane,Victoria,Victoria,77904
Texas,Vibra Rehab Hospital of Amarillo,Inpatient Rehab Facility,7200 W. 9th Avenue,Amarillo,Potter,79106
Texas,Village Creek (Lumberton),Skilled Nursing Facility,705 North Main Street,Lumberton,Hardin,77657
Texas,Westlake Hills,Independent Living Facility,1034 Liberty Park Drive,Austin,Travis,78746
Texas,Whispering Pines Lodge,Skilled Nursing Facility,2131 Alpine Road,Longview,Gregg,75601
Texas,Whispering Springs (fka Carrizo),Skilled Nursing Facility,506 South 7th Street,Carrizo Springs,Dimmit,78834
Texas,Willis,Skilled Nursing Facility,3000 North Danville Road,Willis,Montgomery,77318
Texas,Willow Park (fka Clifton),Skilled Nursing Facility,1000 FM 3220,Clifton,Bosque,76634
Texas,Willows Sherman,Assisted Living Facility,3410 Post Oak Crossing,Sherman,Grayson,75092
Texas,Five Points,Skilled Nursing Facility,521 South Heatherwilde Boulevard,Pflugerville,N/A,78660
Texas,Park Place,Skilled Nursing Facility,101 & 121 FM 971,Georgetown,N/A,78626
Texas,Harvest Home & Inwood Cross,Assisted Living Facility,1441 Bandera Highway,Kerrville,Kerr,78028
Texas,River Point of Kerrville,Assisted Living Facility,520 Baker Driver,Tomball,Harris,77375
Texas,Amistad,Skilled Nursing Facility,200 Riverside Drive,Uvalde,Uvalde,78801
Texas,Arboretum,Skilled Nursing Facility,1215 TX-124,Winnie,Chambers,77665
Texas,Ganado,Skilled Nursing Facility,107 Rogers Street East,Ganado,Jackson,77962
Texas,Matagorda,Skilled Nursing Facility,4521 Avenue F,Bay City,Matagorda,77414
Texas,Shady Oak,Skilled Nursing Facility,101 South Lancaster Street,Moulton,Lavaca,77975
Texas,Shiner,Skilled Nursing Facility,1213 V Ave B #6217,Shiner,Lavaca,77984
Texas,Twilight,Skilled Nursing Facility,2001 West 4th Avenue,Corsicana,Navarro,75110
Vermont,Lake Champlain (formerly St. Albans),Skilled Nursing Facility,596 Sheldon Road,St. Albans,Franklin,05478
Virginia,Ashland,Skilled Nursing Facility,906 Thompson Street,Ashland,Hanover,23005
Virginia,Autumn Care of Chesapeake,Skilled Nursing Facility,715 Argyll Street,Chesapeake,Chesapeake City,23320
Virginia,Autumn Care of Madison,Skilled Nursing Facility,One Autumn Court,Madison,Madison,22727
Virginia,Autumn Care of Mechanicsville,Skilled Nursing Facility,7600 Autumn Park Way,Mechanicsville,Hanover,23116
Virginia,Autumn Care of Norfolk,Skilled Nursing Facility,1401 Halstead Avenue,Norfolk,Norfolk City,23502
Virginia,Autumn Care of Portsmouth,Skilled Nursing Facility,3610 Winchester Drive,Portsmouth,Portsmouth City,23707
Virginia,Autumn Care of Suffolk,Skilled Nursing Facility,2580 Pruden Boulevard,Suffolk,Suffolk City,23434
Virginia,Bon Air,Skilled Nursing Facility,9101 Bon Air,Richmond,Henrico,23233
Virginia,Charlottesville,Skilled Nursing Facility,490 Hillsdale Drive,Charlottesville,Albemarle,22901
Virginia,Colonial (Windermere),Skilled Nursing Facility,1604 Old Donation Parkway,Virginia Beach,Virginia Beach City,23454
Virginia,Forest Health & Rehab (The Carrington),Skilled Nursing Facility,2406 Atherholt Road,Lynchburg,Lynchburg City,24501
Virginia,Hampton,Skilled Nursing Facility,2230 Executive Drive,Hampton,Hampton City,23666
Virginia,Lake Ridge,Assisted Living Facility,3940 Prince William Parkway,Woodbridge,Prince William,22192
Virginia,Mt. Vernon,Skilled Nursing Facility,8111 Tiswell Drive,Alexandria,Fairfax,22306
Virginia,Norfolk (Waterside),Skilled Nursing Facility,249 South Newtown Road,Norfolk,Norfolk City,23502
Virginia,Oak Grove (Sentara Residence),Skilled Nursing Facility,776 Oak Grove Road,Chesapeake,Chesapeake City,23320
Virginia,Portsmouth (Portside),Skilled Nursing Facility,4201 Greenwood Drive,Portsmouth,Portsmouth City,23701
Virginia,Rosemont (Virginia Beach SNF),Skilled Nursing Facility,3750 Sentara Way,Virginia Beach,Virginia Beach City,23452
Virginia,South Boston (Woodview),Skilled Nursing Facility,103 Rosehill Drive,South Boston,Halifax,24592
Virginia,University Park,Skilled Nursing Facility,2420 Pemberton Road,Richmond,Henrico,23233
Virginia,Villages of Rosemont (Virginia Beach ALF),Assisted Living Facility,3751 Sentara Way,Virginia Beach,Virginia Beach City,23452
Virginia,Waddell Nursing & Rehabilitation,Skilled Nursing Facility,202 Painter Street,Galax,Galax City,24333
Virginia,Willow Creek,Skilled Nursing Facility,11611 Robious Road,Midlothian,Chesterfield,23113
Virginia,Ghent (Norfolk),Skilled Nursing Facility,3900 Llewellyn Avenue,Norfolk,Norfolk City,23504
Virginia,Clarksville (Meadowview Terrace),Skilled Nursing Facility,184 Buffalo Road,Clarksville,Mecklenburg,23927
Wales,Canterbury House,Assisted Living Facility,77 Dyserth Road,Rhyl,Flintshire,LL18 4DT
Wales,Cartref Y Borth,Assisted Living Facility,Betws Road,Llanrwst,Conwy,LL26 0HE
Wales,Preswylfa,Assisted Living Facility,20 Russell Road,Rhyl,Flintshire,LL18 3DD
Wales,Stonebridge,Assisted Living Facility,7900 NE Vancouver Mall Drive,Vancouver,Clark,98662
Wales,Torbett,Assisted Living Facility,221 Torbett Street,Richland,Benton,99354
Wales,Quarry Hall,Assisted Living Facility,Newport Rd,"Rumney, St Mellons",Monmouthshire,CF3 5TW
Washington,Buena Vista,Skilled Nursing Facility,151 Buena Vista Drive,Colville,Stevens,99114
Washington,Clarkston,Skilled Nursing Facility,1242 11th Street,Clarkston,Asotin,99403
Washington,Fisher's Landing,Assisted Living Facility,17171 Southeast 22nd Drive,Vancouver,Clark,98683
Washington,Ft. Vancouver Convalescent Center,Skilled Nursing Facility,8507 NE 8th Way,Vancouver,Clark,98664
Washington,Highland CC,Skilled Nursing Facility,2400 Samish Way,Bellingham,Whatcom,98229
Washington,Montclair Poulsbo,Assisted Living Facility,1250 NE Lincoln Road,Poulsbo,Kitsap,98370
Washington,Richland CC,Skilled Nursing Facility,1745 Pike Avenue,Richland,Benton,99352
Washington,Royal Park,Skilled Nursing Facility,7411 N. Nevada St.,Spokane,Spokane,99208
Washington,Royal Park Ret.,Assisted Living Facility,302 E Wedgewood Ave,Spokane,Spokane,99208
Washington,The Ridge,Assisted Living Facility,1501 NW Tower View Circle,Silverdale,Kitsap,98383
Washington,Whitman,Skilled Nursing Facility,1150 Fairview Road,Colfax,Whitman,99111
Washington,Lacamas Creek (Highland Terrace),Skilled Nursing Facility,740 NE Dallas Street,Camas,Clark,98607
Washington,Richland ALF,Assisted Living Facility,1745 Pike Avenue,Richland,Benton,99352
Washington,Sunnyside (Hillcrest),Skilled Nursing Facility,721 Otis Avenue,Sunnyside,Yakima,98944
West Virginia,Cameron,Skilled Nursing Facility,20 Wilson Drive,Cameron,Marshall,26033
West Virginia,Crestview,Skilled Nursing Facility,199 Court Street,Jane Lew,Lewis,26378
West Virginia,Dunbar,Skilled Nursing Facility,501 Caldwell Lane,Dunbar,Kanawha,25064
West Virginia,Hillcrest,Skilled Nursing Facility,"Lick Creek Road, P.O. Box 605",Danville,Boone,25053
West Virginia,Laurel (Clay),Skilled Nursing Facility,"HC 75, Box 153, Clinic Rd.",Ivydale,Clay,25113
West Virginia,McDowell,Skilled Nursing Facility,150 Venus Road,Gary,McDowell,24801
West Virginia,Mercer,Skilled Nursing Facility,1275 Southview Drive,Bluefield,Mercer,24701
West Virginia,Parkersburg,Skilled Nursing Facility,1716 Gihon Road,Parkersburg,Wood,26101
West Virginia,Peterson Rehabilitation Hospital,Skilled Nursing Facility,Homestead Avenue,Wheeling,Ohio,26003
West Virginia,Pierpont (Wishing Well Manor),Skilled Nursing Facility,1543 Country Club Road,Fairmont,Marion,26554
West Virginia,Pine Lodge Care & Rehab,Skilled Nursing Facility,405 Stanford Road,Beckley,Raleigh,25801
West Virginia,Pine View,Skilled Nursing Facility,"400 McKinley Avenue (and 79, 201 and 219 North Stout St)",Harrisville,Richie,26362
West Virginia,Putnam,Skilled Nursing Facility,300 Seville Road,Hurricane,Putnam,25526
West Virginia,Salem,Skilled Nursing Facility,146 Water Street,Salem,Harrison,26426
West Virginia,Tygart (Wishing Well HC),Skilled Nursing Facility,1539 Country Club Road,Fairmont,Marion,26554
West Virginia,Wayne,Skilled Nursing Facility,6999 Route 152,Wayne,Wayne,25570
West Virginia,Willow Tree Manor,Skilled Nursing Facility,1263 South George Street,Charles Town,Jefferson,25414
Wisconsin,Columbus Care Center,Skilled Nursing Facility,825 Western Avenue,Columbus,Columbia,53925
